{
  "version": 0.6,
  "generator": "Overpass API",
  "osm3s": {
    "timestamp_osm_base": "2016-07-07T09:12:02Z",
    "timestamp_areas_base": "2016-07-06T07:40:03Z",
    "copyright": "The data included in this document is from www.openstreetmap.org. The data is made available under ODbL."
  },
  "elements": [

{
  "type": "node",
  "id": 320409795,
  "lat": 53.6685512,
  "lon": 23.8021919,
  "tags": {
    "bench": "yes",
    "bus": "yes",
    "highway": "bus_stop",
    "name": "улица Поповича",
    "name:be": "вуліца Паповіча",
    "name:ru": "улица Поповича",
    "public_transport": "platform",
    "shelter": "yes",
    "trolleybus": "yes"
  }
},
{
  "type": "node",
  "id": 320409829,
  "lat": 53.6651509,
  "lon": 23.7889530,
  "tags": {
    "bus": "yes",
    "highway": "bus_stop",
    "name": "улица Лизы Чайкиной",
    "name:be": "вуліца Лізы Чайкінай",
    "name:ru": "улица Лизы Чайкиной",
    "public_transport": "platform",
    "trolleybus": "yes"
  }
},
{
  "type": "node",
  "id": 320409830,
  "lat": 53.6652295,
  "lon": 23.7834212,
  "tags": {
    "bus": "yes",
    "highway": "bus_stop",
    "int_name": "Foliuš",
    "name": "Фолюш",
    "name:be": "Фолюш",
    "name:ru": "Фолюш",
    "public_transport": "platform",
    "trolleybus": "yes"
  }
},
{
  "type": "node",
  "id": 320409842,
  "lat": 53.6642390,
  "lon": 23.7907901,
  "tags": {
    "bus": "yes",
    "highway": "bus_stop",
    "name": "улица Лизы Чайкиной",
    "name:be": "вуліца Лізы Чайкінай",
    "name:ru": "улица Лизы Чайкиной",
    "public_transport": "platform",
    "trolleybus": "yes"
  }
},
{
  "type": "node",
  "id": 320409845,
  "lat": 53.6636533,
  "lon": 23.8008549,
  "tags": {
    "bus": "yes",
    "highway": "bus_stop",
    "int_name": "plošča Dziekabrystaŭ",
    "name": "площадь Декабристов",
    "name:be": "плошча Дзекабрыстаў",
    "name:ru": "площадь Декабристов",
    "public_transport": "platform",
    "shelter": "yes",
    "trolleybus": "yes"
  }
},
{
  "type": "node",
  "id": 320409848,
  "lat": 53.6636668,
  "lon": 23.7989590,
  "tags": {
    "bus": "yes",
    "highway": "bus_stop",
    "int_name": "plošča Dziekabrystaŭ",
    "name": "площадь Декабристов",
    "name:be": "плошча Дзекабрыстаў",
    "name:ru": "площадь Декабристов",
    "public_transport": "platform",
    "shelter": "yes",
    "trolleybus": "yes"
  }
},
{
  "type": "node",
  "id": 320676302,
  "lat": 53.7053006,
  "lon": 23.8580508,
  "tags": {
    "bus": "yes",
    "highway": "bus_stop",
    "int_name": "vulica Kurčatava",
    "name": "улица Курчатова",
    "name:be": "вуліца Курчатава",
    "name:ru": "улица Курчатова",
    "public_transport": "platform"
  }
},
{
  "type": "node",
  "id": 347507534,
  "lat": 53.6656020,
  "lon": 23.8268729,
  "tags": {
    "bus": "yes",
    "highway": "bus_stop",
    "name": "Стеклозавод",
    "name:be": "Шклозавод",
    "name:ru": "Стеклозавод",
    "public_transport": "platform",
    "trolleybus": "yes"
  }
},
{
  "type": "node",
  "id": 352676263,
  "lat": 53.6979803,
  "lon": 23.8195924,
  "tags": {
    "bench": "yes",
    "bus": "yes",
    "highway": "bus_stop",
    "name": "Дом Науки и Техники",
    "name:be": "Дом Навукі і Тэхнікі",
    "name:ru": "Дом Науки и Техники",
    "public_transport": "platform",
    "shelter": "yes",
    "trolleybus": "yes"
  }
},
{
  "type": "node",
  "id": 352929479,
  "lat": 53.6969451,
  "lon": 23.8026598,
  "tags": {
    "bench": "yes",
    "bus": "yes",
    "highway": "bus_stop",
    "name": "Форты",
    "name:be": "Фарты",
    "name:ru": "Форты",
    "public_transport": "platform",
    "route_ref": "6;20;24;34",
    "shelter": "yes",
    "trolleybus": "yes"
  }
},
{
  "type": "node",
  "id": 352929480,
  "lat": 53.6981605,
  "lon": 23.8101857,
  "tags": {
    "alt_name": "БЛК",
    "bench": "yes",
    "bus": "yes",
    "highway": "bus_stop",
    "name": "бульвар Ленинского Комсомола 9",
    "name:be": "бульвар Ленінскага Камсамола",
    "name:ru": "бульвар Ленинского Комсомола",
    "public_transport": "platform",
    "shelter": "yes",
    "trolleybus": "yes"
  }
},
{
  "type": "node",
  "id": 353051092,
  "lat": 53.6973566,
  "lon": 23.8205644,
  "tags": {
    "bench": "yes",
    "bus": "yes",
    "covered": "yes",
    "highway": "bus_stop",
    "name": "Кафе \"Романтика\"",
    "name:be": "Кафэ \"Рамантыка\"",
    "name:ru": "Кафе \"Романтика\"",
    "public_transport": "platform",
    "shelter": "yes",
    "trolleybus": "yes"
  }
},
{
  "type": "node",
  "id": 353052064,
  "lat": 53.6911698,
  "lon": 23.8251368,
  "tags": {
    "bus": "yes",
    "highway": "bus_stop",
    "name": "кинотеатр \"Космос\"",
    "name:be": "Кінатэатр «Космас»",
    "name:ru": "Кинотеатр «Космос»",
    "public_transport": "platform",
    "shelter": "yes",
    "trolleybus": "yes"
  }
},
{
  "type": "node",
  "id": 353057025,
  "lat": 53.6853581,
  "lon": 23.8291679,
  "tags": {
    "highway": "bus_stop",
    "name": "Рембыттехника",
    "name:be": "Рэмбыттэхніка",
    "name:ru": "Рембыттехника",
    "public_transport": "platform",
    "shelter": "yes",
    "trolleybus": "yes"
  }
},
{
  "type": "node",
  "id": 387618810,
  "lat": 53.6818699,
  "lon": 23.8404349,
  "tags": {
    "bus": "yes",
    "highway": "bus_stop",
    "name": "улица Ленина",
    "name:be": "вуліца Леніна",
    "name:ru": "улица Ленина",
    "public_transport": "platform",
    "shelter": "yes"
  }
},
{
  "type": "node",
  "id": 387627658,
  "lat": 53.6781906,
  "lon": 23.8411909,
  "tags": {
    "bus": "yes",
    "highway": "bus_stop",
    "name": "Гуманитарный колледж",
    "name:be": "Гуманітарны каледж",
    "name:ru": "Гуманитарный колледж",
    "old_name": "Педагогический колледж",
    "public_transport": "platform",
    "route_ref": "2;3;5;8;14;15;16;18;19;20;37",
    "shelter": "yes",
    "source": "survey"
  }
},
{
  "type": "node",
  "id": 387715380,
  "lat": 53.7030788,
  "lon": 23.7967070,
  "tags": {
    "bench": "yes",
    "bus": "yes",
    "highway": "bus_stop",
    "name": "Гимназия № 5",
    "name:be": "Гімназія № 5",
    "name:ru": "Гимназия № 5",
    "old_name:be": "СШ № 21",
    "old_name:ru": "СШ № 21",
    "public_transport": "platform",
    "route_ref": "7;20;28",
    "shelter": "yes"
  }
},
{
  "type": "node",
  "id": 387715382,
  "lat": 53.7020461,
  "lon": 23.7970426,
  "tags": {
    "bench": "yes",
    "bus": "yes",
    "highway": "bus_stop",
    "name": "Гимназия № 5",
    "name:be": "Гімназія № 5",
    "name:ru": "Гимназия № 5",
    "old_name:be": "СШ № 21",
    "old_name:ru": "СШ № 21",
    "public_transport": "platform",
    "route_ref": "7;20;28",
    "shelter": "no"
  }
},
{
  "type": "node",
  "id": 390970665,
  "lat": 53.6986378,
  "lon": 23.7880858,
  "tags": {
    "bus": "yes",
    "highway": "bus_stop",
    "name": "Больница № 3",
    "name:be": "Бальніца № 3",
    "name:ru": "Больница № 3",
    "public_transport": "platform"
  }
},
{
  "type": "node",
  "id": 391056399,
  "lat": 53.6904355,
  "lon": 23.8010744,
  "tags": {
    "bus": "yes",
    "highway": "bus_stop",
    "name": "Фестивальная улица",
    "name:be": "Фестывальная вуліца",
    "name:ru": "Фестивальная улица",
    "public_transport": "platform",
    "shelter": "yes",
    "trolleybus": "yes"
  }
},
{
  "type": "node",
  "id": 391427240,
  "lat": 53.6973444,
  "lon": 23.8028118,
  "tags": {
    "bench": "yes",
    "bus": "yes",
    "highway": "bus_stop",
    "name": "Форты",
    "name:be": "Фарты",
    "name:ru": "Форты",
    "public_transport": "platform",
    "route_ref": "6;24",
    "shelter": "yes",
    "trolleybus": "yes"
  }
},
{
  "type": "node",
  "id": 391427241,
  "lat": 53.6982091,
  "lon": 23.8002106,
  "tags": {
    "bus": "yes",
    "highway": "bus_stop",
    "name": "Форты",
    "name:be": "Фарты",
    "name:ru": "Форты",
    "public_transport": "platform",
    "route_ref": "7;20;28",
    "shelter": "yes"
  }
},
{
  "type": "node",
  "id": 418977869,
  "lat": 53.6714510,
  "lon": 23.8061881,
  "tags": {
    "bench": "yes",
    "bus": "yes",
    "highway": "bus_stop",
    "name": "Обувная фабрика",
    "name:be": "Абутковая фабрыка",
    "name:ru": "Обувная фабрика",
    "public_transport": "platform",
    "shelter": "yes",
    "trolleybus": "yes"
  }
},
{
  "type": "node",
  "id": 421950815,
  "lat": 53.6715530,
  "lon": 23.8615027,
  "tags": {
    "bus": "yes",
    "highway": "bus_stop",
    "name": "Гипермаркет \"Алми\"",
    "name:ru": "Гипермаркет \"Алми\"",
    "public_transport": "platform",
    "source": "survey",
    "trolleybus": "yes"
  }
},
{
  "type": "node",
  "id": 421962534,
  "lat": 53.6638560,
  "lon": 23.8603503,
  "tags": {
    "bench": "yes",
    "bus": "yes",
    "highway": "bus_stop",
    "name": "Румлёвский проспект",
    "name:be": "Румлёўскі праспект",
    "name:ru": "Румлёвский проспект",
    "old_name": "СТОА",
    "public_transport": "platform",
    "shelter": "yes",
    "trolleybus": "yes"
  }
},
{
  "type": "node",
  "id": 428642560,
  "lat": 53.6666476,
  "lon": 23.8483277,
  "tags": {
    "bus": "yes",
    "highway": "bus_stop",
    "name": "Пригородная улица",
    "name:be": "Прыгарадная вуліца",
    "name:ru": "Пригородная улица",
    "public_transport": "platform"
  }
},
{
  "type": "node",
  "id": 429379287,
  "lat": 53.6891282,
  "lon": 23.8004176,
  "tags": {
    "bus": "yes",
    "highway": "bus_stop",
    "name": "Фестивальная улица",
    "name:be": "Фестывальная вуліца",
    "name:ru": "Фестивальная улица",
    "public_transport": "platform",
    "shelter": "yes",
    "trolleybus": "yes"
  }
},
{
  "type": "node",
  "id": 429379288,
  "lat": 53.6928061,
  "lon": 23.8006021,
  "tags": {
    "bus": "yes",
    "highway": "bus_stop",
    "name": "улица Болдина",
    "name:be": "вуліца Болдзіна",
    "name:ru": "улица Болдина",
    "public_transport": "platform",
    "shelter": "yes",
    "trolleybus": "yes"
  }
},
{
  "type": "node",
  "id": 429379289,
  "lat": 53.6933871,
  "lon": 23.8011837,
  "tags": {
    "bus": "yes",
    "highway": "bus_stop",
    "name": "улица Болдина",
    "name:be": "вуліца Болдзіна",
    "name:ru": "улица Болдина",
    "public_transport": "platform",
    "shelter": "yes",
    "trolleybus": "yes"
  }
},
{
  "type": "node",
  "id": 429379290,
  "lat": 53.6958588,
  "lon": 23.7944971,
  "tags": {
    "bus": "yes",
    "highway": "bus_stop",
    "name": "Областная больница",
    "name:be": "Абласная бальніца",
    "name:ru": "Областная больница",
    "public_transport": "platform",
    "shelter": "yes"
  }
},
{
  "type": "node",
  "id": 431330918,
  "lat": 53.6792075,
  "lon": 23.8422316,
  "tags": {
    "bus": "yes",
    "highway": "bus_stop",
    "int_name": "vulica Karbyšava",
    "name": "улица Карбышева",
    "name:be": "вуліца Карбышава",
    "name:ru": "улица Карбышева",
    "public_transport": "platform",
    "shelter": "no"
  }
},
{
  "type": "node",
  "id": 431335367,
  "lat": 53.6870281,
  "lon": 23.8475274,
  "tags": {
    "bus": "yes",
    "highway": "bus_stop",
    "name": "Железнодорожный вокзал",
    "name:be": "Чыгуначны вакзал",
    "name:ru": "Железнодорожный вокзал",
    "public_transport": "platform",
    "shelter": "yes"
  }
},
{
  "type": "node",
  "id": 431335369,
  "lat": 53.6861085,
  "lon": 23.8452560,
  "tags": {
    "bus": "yes",
    "highway": "bus_stop",
    "name": "улица Ожешко",
    "name:be": "вуліца Ажэшкі",
    "name:ru": "улица Ожешко",
    "public_transport": "platform",
    "shelter": "yes"
  }
},
{
  "type": "node",
  "id": 431340008,
  "lat": 53.6856794,
  "lon": 23.8353961,
  "tags": {
    "bus": "yes",
    "highway": "bus_stop",
    "name": "Театр кукол",
    "name:be": "Тэатр лялек",
    "name:ru": "Театр кукол",
    "public_transport": "platform",
    "shelter": "yes"
  }
},
{
  "type": "node",
  "id": 431341287,
  "lat": 53.6910746,
  "lon": 23.8363438,
  "tags": {
    "bus": "yes",
    "highway": "bus_stop",
    "name": "Детская больница",
    "name:be": "Дзіцячая бальніца",
    "name:ru": "Детская больница",
    "public_transport": "platform",
    "shelter": "yes"
  }
},
{
  "type": "node",
  "id": 431346173,
  "lat": 53.6993370,
  "lon": 23.8172257,
  "tags": {
    "bench": "yes",
    "bus": "yes",
    "highway": "bus_stop",
    "name": "Медицинский университет",
    "name:be": "Медыцынскі ўніверсітэт",
    "name:ru": "Медицинский университет",
    "public_transport": "platform",
    "shelter": "yes",
    "trolleybus": "yes"
  }
},
{
  "type": "node",
  "id": 445394314,
  "lat": 53.6781149,
  "lon": 23.8363237,
  "tags": {
    "bus": "yes",
    "highway": "bus_stop",
    "int_name": "Maladziožnaja vulica",
    "name": "Молодёжная улица",
    "name:be": "Маладзёжная вуліца",
    "name:ru": "Молодёжная улица",
    "public_transport": "platform",
    "shelter": "yes",
    "trolleybus": "yes"
  }
},
{
  "type": "node",
  "id": 445394323,
  "lat": 53.6769241,
  "lon": 23.8379979,
  "tags": {
    "bus": "yes",
    "highway": "bus_stop",
    "name": "Дом связи",
    "name:be": "Дом сувязі",
    "name:ru": "Дом связи",
    "public_transport": "platform",
    "shelter": "yes",
    "trolleybus": "yes"
  }
},
{
  "type": "node",
  "id": 445397980,
  "lat": 53.6875824,
  "lon": 23.8350452,
  "tags": {
    "bus": "yes",
    "highway": "bus_stop",
    "int_name": "Park Žylibiera",
    "name": "Парк Жилибера",
    "name:be": "Парк Жылібера",
    "name:ru": "Парк Жилибера",
    "old_name": "Центр занятости",
    "old_name:be": "Цэнтр занятасці",
    "old_name:ru": "Центр занятости",
    "public_transport": "platform",
    "shelter": "yes",
    "trolleybus": "yes"
  }
},
{
  "type": "node",
  "id": 456382905,
  "lat": 53.6987951,
  "lon": 23.8087833,
  "tags": {
    "bench": "yes",
    "bus": "yes",
    "highway": "bus_stop",
    "name": "СМТ-30",
    "name:be": "БМТ-30",
    "name:ru": "СМТ-30",
    "public_transport": "platform",
    "shelter": "yes",
    "trolleybus": "yes"
  }
},
{
  "type": "node",
  "id": 457640339,
  "lat": 53.6838590,
  "lon": 23.8055248,
  "tags": {
    "bench": "yes",
    "bus": "yes",
    "highway": "bus_stop",
    "int_name": "Viasnovaja vulica",
    "name": "Весенняя улица",
    "name:be": "Вясновая вуліца",
    "name:ru": "Весенняя улица",
    "public_transport": "platform",
    "shelter": "yes",
    "trolleybus": "yes"
  }
},
{
  "type": "node",
  "id": 457699017,
  "lat": 53.6741978,
  "lon": 23.8044813,
  "tags": {
    "bus": "yes",
    "highway": "bus_stop",
    "name": "Торговый колледж",
    "name:be": "Кааператыўны каледж",
    "name:ru": "Торговый колледж",
    "note": "На остановке две таблички на белорусском, \"Кааператыўны каледж\" и \"Тарговы калледж\"",
    "note:route": "Авт. 7, 28; Трол. 8,10,12",
    "public_transport": "platform",
    "shelter": "yes",
    "trolleybus": "yes"
  }
},
{
  "type": "node",
  "id": 457709643,
  "lat": 53.6736603,
  "lon": 23.8037392,
  "tags": {
    "bench": "yes",
    "bus": "yes",
    "highway": "bus_stop",
    "name": "училище Олимпийского Резерва",
    "public_transport": "platform",
    "shelter": "yes",
    "trolleybus": "yes"
  }
},
{
  "type": "node",
  "id": 457714319,
  "lat": 53.6759102,
  "lon": 23.8014907,
  "tags": {
    "bus": "yes",
    "highway": "bus_stop",
    "int_name": "zavulak Papoviča",
    "name": "переулок Поповича",
    "name:be": "завулак Паповіча",
    "name:ru": "переулок Поповича",
    "public_transport": "platform",
    "shelter": "yes"
  }
},
{
  "type": "node",
  "id": 457714320,
  "lat": 53.6754950,
  "lon": 23.8029783,
  "tags": {
    "bus": "yes",
    "highway": "bus_stop",
    "int_name": "zavulak Papoviča",
    "name": "переулок Поповича",
    "name:be": "завулак Паповіча",
    "name:ru": "переулок Поповича",
    "public_transport": "platform",
    "shelter": "yes"
  }
},
{
  "type": "node",
  "id": 457714321,
  "lat": 53.6742528,
  "lon": 23.7955531,
  "tags": {
    "highway": "bus_stop",
    "shelter": "yes",
    "source": "survey"
  }
},
{
  "type": "node",
  "id": 462597932,
  "lat": 53.7065251,
  "lon": 23.7956002,
  "tags": {
    "bench": "yes",
    "bus": "yes",
    "highway": "bus_stop",
    "name": "улица Домбровского",
    "name:be": "вуліца Дамброўскага",
    "name:ru": "улица Домбровского",
    "public_transport": "platform",
    "shelter": "yes"
  }
},
{
  "type": "node",
  "id": 467926933,
  "lat": 53.6517374,
  "lon": 23.8321800,
  "tags": {
    "bench": "yes",
    "bus": "yes",
    "highway": "bus_stop",
    "name": "улица Томина",
    "name:be": "вуліца Томіна",
    "name:ru": "улица Томина",
    "public_transport": "platform",
    "shelter": "yes"
  }
},
{
  "type": "node",
  "id": 468000466,
  "lat": 53.6479887,
  "lon": 23.8374874,
  "tags": {
    "bus": "yes",
    "highway": "bus_stop",
    "name": "магазин \"Ника\"",
    "name:be": "магазін \"Ніка\"",
    "name:ru": "магазин \"Ника\"",
    "old_name": "АЗС",
    "public_transport": "platform",
    "shelter": "yes",
    "trolleybus": "yes"
  }
},
{
  "type": "node",
  "id": 468000488,
  "lat": 53.6486566,
  "lon": 23.8394933,
  "tags": {
    "bus": "yes",
    "highway": "bus_stop",
    "name": "магазин \"Ника\"",
    "name:be": "магазін \"Ніка\"",
    "name:ru": "магазин \"Ника\"",
    "old_name": "АЗС",
    "public_transport": "platform",
    "shelter": "yes",
    "trolleybus": "yes"
  }
},
{
  "type": "node",
  "id": 471704412,
  "lat": 53.6532169,
  "lon": 23.8558982,
  "tags": {
    "bench": "yes",
    "bus": "yes",
    "highway": "bus_stop",
    "name": "Церковь всех белорусских святых",
    "name:be": "Царква Усіх Беларускіх Святых",
    "name:ru": "Церковь всех белорусских святых",
    "public_transport": "platform",
    "shelter": "no",
    "trolleybus": "yes"
  }
},
{
  "type": "node",
  "id": 471704481,
  "lat": 53.6502513,
  "lon": 23.8594154,
  "tags": {
    "bus": "yes",
    "highway": "bus_stop",
    "name": "Больница №4",
    "name:be": "Бальніца №4",
    "name:ru": "Больница №4",
    "public_transport": "platform",
    "shelter": "yes"
  }
},
{
  "type": "node",
  "id": 471704609,
  "lat": 53.6516431,
  "lon": 23.8550990,
  "tags": {
    "bench": "yes",
    "bus": "yes",
    "highway": "bus_stop",
    "name": "Церковь всех белорусских святых",
    "name:be": "Царква Усіх Беларускіх Святых",
    "name:ru": "Церковь всех белорусских святых",
    "public_transport": "platform",
    "shelter": "yes",
    "source": "survey"
  }
},
{
  "type": "node",
  "id": 483668126,
  "lat": 53.6755422,
  "lon": 23.8510198,
  "tags": {
    "bus": "yes",
    "highway": "bus_stop",
    "name": "кинотеатр \"Восток\"",
    "name:be": "кінатэатр \"Усход\"",
    "name:ru": "кинотеатр \"Восток\"",
    "public_transport": "platform",
    "shelter": "yes",
    "trolleybus": "yes"
  }
},
{
  "type": "node",
  "id": 483668131,
  "lat": 53.6767160,
  "lon": 23.8433941,
  "tags": {
    "bus": "yes",
    "highway": "bus_stop",
    "name": "Автовокзал",
    "name:be": "Аўтавакзал",
    "name:ru": "Автовокзал",
    "public_transport": "platform",
    "share_taxi": "yes",
    "shelter": "yes",
    "trolleybus": "yes"
  }
},
{
  "type": "node",
  "id": 483668152,
  "lat": 53.6947181,
  "lon": 23.8351212,
  "tags": {
    "bus": "yes",
    "highway": "bus_stop",
    "name": "Хлебозавод",
    "name:be": "Хлебазавод",
    "name:ru": "Хлебозавод",
    "public_transport": "platform",
    "shelter": "yes"
  }
},
{
  "type": "node",
  "id": 483668159,
  "lat": 53.6971223,
  "lon": 23.8317992,
  "tags": {
    "bus": "yes",
    "highway": "bus_stop",
    "int_name": "vulica Puškina",
    "name": "улица Пушкина",
    "name:be": "вуліца Пушкіна",
    "name:ru": "улица Пушкина",
    "public_transport": "platform",
    "shelter": "yes"
  }
},
{
  "type": "node",
  "id": 483675942,
  "lat": 53.6981014,
  "lon": 23.8076200,
  "tags": {
    "alt_name": "БЛК",
    "bench": "yes",
    "bus": "yes",
    "highway": "bus_stop",
    "name": "бульвар Ленинского Комсомола",
    "name:be": "бульвар Ленінскага Камсамола",
    "name:ru": "бульвар Ленинского Комсомола",
    "public_transport": "platform",
    "shelter": "yes",
    "trolleybus": "yes"
  }
},
{
  "type": "node",
  "id": 483740204,
  "lat": 53.6995581,
  "lon": 23.8219578,
  "tags": {
    "bench": "yes",
    "bus": "yes",
    "highway": "bus_stop",
    "name": "улица Дубко",
    "name:be": "вуліца Дубко",
    "name:ru": "улица Дубко",
    "old_name": "Родильный дом",
    "public_transport": "platform",
    "shelter": "yes"
  }
},
{
  "type": "node",
  "id": 492603180,
  "lat": 53.6804979,
  "lon": 23.8550355,
  "tags": {
    "bus": "yes",
    "highway": "bus_stop",
    "name": "13-я школа",
    "name:be": "13-я школа",
    "name:ru": "13-я школа",
    "public_transport": "platform",
    "shelter": "yes"
  }
},
{
  "type": "node",
  "id": 492603221,
  "lat": 53.6876755,
  "lon": 23.8532089,
  "tags": {
    "bus": "yes",
    "highway": "bus_stop",
    "name": "Пролетарская улица",
    "name:be": "Пралетарская вуліца",
    "name:ru": "Пролетарская улица",
    "public_transport": "platform"
  }
},
{
  "type": "node",
  "id": 506553532,
  "lat": 53.6903525,
  "lon": 23.8769202,
  "tags": {
    "bus": "yes",
    "highway": "bus_stop",
    "name": "Маслобаза",
    "public_transport": "platform",
    "source": "survey"
  }
},
{
  "type": "node",
  "id": 506553533,
  "lat": 53.6885294,
  "lon": 23.8783017,
  "tags": {
    "bus": "yes",
    "highway": "bus_stop",
    "name": "Автокомбинат №9",
    "public_transport": "platform",
    "source": "survey"
  }
},
{
  "type": "node",
  "id": 506553534,
  "lat": 53.6879691,
  "lon": 23.8782161,
  "tags": {
    "bus": "yes",
    "highway": "bus_stop",
    "name": "Автокомбинат №9",
    "public_transport": "platform",
    "source": "survey"
  }
},
{
  "type": "node",
  "id": 506553579,
  "lat": 53.6782644,
  "lon": 23.8878937,
  "tags": {
    "bus": "yes",
    "highway": "bus_stop",
    "name": "Механический завод",
    "name:be": "Механічны завод",
    "name:ru": "Механический завод",
    "public_transport": "platform",
    "source": "survey"
  }
},
{
  "type": "node",
  "id": 506553713,
  "lat": 53.6725076,
  "lon": 23.8904877,
  "tags": {
    "highway": "bus_stop",
    "name": "Гродноазот",
    "public_transport": "platform",
    "shelter": "yes",
    "source": "survey",
    "trolleybus": "yes"
  }
},
{
  "type": "node",
  "id": 506553732,
  "lat": 53.6696088,
  "lon": 23.8879052,
  "tags": {
    "bench": "yes",
    "bus": "yes",
    "highway": "bus_stop",
    "name": "Азот",
    "public_transport": "platform",
    "shelter": "yes",
    "source": "survey"
  }
},
{
  "type": "node",
  "id": 507052813,
  "lat": 53.6704789,
  "lon": 23.8620997,
  "tags": {
    "bus": "yes",
    "highway": "bus_stop",
    "name": "улица Друцк",
    "name:be": "вуліца Друцк",
    "name:ru": "улица Друцк",
    "old_name": "Автоинспекция",
    "public_transport": "platform",
    "route_ref": "5;12;13;18;27",
    "shelter": "yes",
    "source": "survey"
  }
},
{
  "type": "node",
  "id": 507053096,
  "lat": 53.6641255,
  "lon": 23.8702271,
  "tags": {
    "bus": "yes",
    "highway": "bus_stop",
    "name": "Райсельхозтехника",
    "name:ru": "Райсельхозтехника",
    "public_transport": "platform",
    "shelter": "no",
    "source": "survey"
  }
},
{
  "type": "node",
  "id": 507053247,
  "lat": 53.6660068,
  "lon": 23.8696199,
  "tags": {
    "bus": "yes",
    "highway": "bus_stop",
    "public_transport": "platform",
    "shelter": "yes"
  }
},
{
  "type": "node",
  "id": 517455834,
  "lat": 53.6737676,
  "lon": 23.8640219,
  "tags": {
    "bus": "yes",
    "highway": "bus_stop",
    "int_name": "Traliejbusnaje upraŭliennie",
    "name": "Троллейбусное управление",
    "name:be": "Тралейбуснае упраўленне",
    "name:ru": "Троллейбусное управление",
    "public_transport": "platform",
    "source": "survey",
    "trolleybus": "yes"
  }
},
{
  "type": "node",
  "id": 517535527,
  "lat": 53.6700041,
  "lon": 23.8605638,
  "tags": {
    "bench": "yes",
    "bus": "yes",
    "highway": "bus_stop",
    "name": "ГАИ",
    "name:be": "ДАІ",
    "name:ru": "ГАИ",
    "public_transport": "platform",
    "shelter": "yes",
    "source": "survey",
    "trolleybus": "yes"
  }
},
{
  "type": "node",
  "id": 517535531,
  "lat": 53.6711272,
  "lon": 23.8600751,
  "tags": {
    "bus": "yes",
    "highway": "bus_stop",
    "name": "ГАИ",
    "name:be": "ДАІ",
    "name:ru": "ГАИ",
    "public_transport": "platform",
    "source": "survey"
  }
},
{
  "type": "node",
  "id": 522814962,
  "lat": 53.6492548,
  "lon": 23.8459297,
  "tags": {
    "bus": "yes",
    "highway": "bus_stop",
    "name": "проспект Клецкова",
    "name:be": "праспект Кляцкога",
    "name:ru": "проспект Клецкова",
    "public_transport": "platform",
    "shelter": "yes",
    "trolleybus": "yes"
  }
},
{
  "type": "node",
  "id": 522934844,
  "lat": 53.6571558,
  "lon": 23.8413289,
  "tags": {
    "bus": "yes",
    "highway": "bus_stop",
    "name": "улица Фомичёва",
    "name:be": "вуліца Фамічова",
    "name:ru": "улица Фомичёва",
    "public_transport": "platform",
    "shelter": "yes",
    "trolleybus": "yes"
  }
},
{
  "type": "node",
  "id": 522934860,
  "lat": 53.6529324,
  "lon": 23.8527638,
  "tags": {
    "bus": "yes",
    "highway": "bus_stop",
    "int_name": "praspiekt Janki Kupaly",
    "name": "проспект Янки Купалы",
    "name:be": "праспект Янкі Купалы",
    "name:ru": "проспект Янки Купалы",
    "public_transport": "platform",
    "shelter": "yes",
    "source": "survey",
    "trolleybus": "yes"
  }
},
{
  "type": "node",
  "id": 522934882,
  "lat": 53.6576162,
  "lon": 23.8409018,
  "tags": {
    "bus": "yes",
    "highway": "bus_stop",
    "name": "улица Фомичёва",
    "name:be": "вуліца Фамічова",
    "name:ru": "улица Фомичёва",
    "public_transport": "platform",
    "shelter": "yes",
    "trolleybus": "yes"
  }
},
{
  "type": "node",
  "id": 522934900,
  "lat": 53.6613107,
  "lon": 23.8471948,
  "tags": {
    "bench": "yes",
    "bus": "yes",
    "highway": "bus_stop",
    "name": "Средняя школа №3",
    "name:ru": "Средняя школа №3",
    "public_transport": "platform",
    "shelter": "yes"
  }
},
{
  "type": "node",
  "id": 523866088,
  "lat": 53.6752797,
  "lon": 23.8312459,
  "tags": {
    "bus": "yes",
    "highway": "bus_stop",
    "name": "улица Парижской Коммуны",
    "name:be": "вуліца Парыжскай Камуны",
    "name:ru": "улица Парижской Коммуны",
    "public_transport": "platform",
    "shelter": "no",
    "source": "survey"
  }
},
{
  "type": "node",
  "id": 524212287,
  "lat": 53.6751579,
  "lon": 23.8516567,
  "tags": {
    "bus": "yes",
    "highway": "bus_stop",
    "name": "кинотеатр \"Восток\"",
    "name:be": "кінатэатр \"Усход\"",
    "name:ru": "кинотеатр \"Восток\"",
    "public_transport": "platform",
    "shelter": "yes",
    "trolleybus": "yes"
  }
},
{
  "type": "node",
  "id": 527169340,
  "lat": 53.6926499,
  "lon": 23.8235083,
  "tags": {
    "bench": "yes",
    "bus": "yes",
    "highway": "bus_stop",
    "name": "Пинскдрев",
    "public_transport": "platform",
    "shelter": "yes",
    "trolleybus": "yes"
  }
},
{
  "type": "node",
  "id": 540085270,
  "lat": 53.6956407,
  "lon": 23.8007199,
  "tags": {
    "bench": "yes",
    "bus": "yes",
    "highway": "bus_stop",
    "name": "Форты",
    "name:be": "Фарты",
    "name:ru": "Форты",
    "note": "Останавливаются только автобусы идущие с ул. Домбровского",
    "public_transport": "platform",
    "shelter": "no"
  }
},
{
  "type": "node",
  "id": 540450798,
  "lat": 53.7409778,
  "lon": 23.8224204,
  "tags": {
    "bench": "yes",
    "bus": "yes",
    "highway": "bus_stop",
    "name": "Сортучасток",
    "name:ru": "Сортучасток",
    "public_transport": "platform",
    "source": "survey"
  }
},
{
  "type": "node",
  "id": 540450799,
  "lat": 53.7395939,
  "lon": 23.8215182,
  "tags": {
    "bench": "yes",
    "bus": "yes",
    "highway": "bus_stop",
    "name": "Сортучасток",
    "name:ru": "Сортучасток",
    "public_transport": "platform",
    "shelter": "yes",
    "source": "survey"
  }
},
{
  "type": "node",
  "id": 540450800,
  "lat": 53.7296194,
  "lon": 23.8174151,
  "tags": {
    "bench": "yes",
    "bus": "yes",
    "highway": "bus_stop",
    "name": "Грандичи Центр",
    "public_transport": "platform",
    "source": "survey"
  }
},
{
  "type": "node",
  "id": 540450801,
  "lat": 53.7293400,
  "lon": 23.8169673,
  "tags": {
    "bench": "yes",
    "bus": "yes",
    "highway": "bus_stop",
    "name": "Грандичи Центр",
    "public_transport": "platform",
    "source": "survey"
  }
},
{
  "type": "node",
  "id": 540450802,
  "lat": 53.7231085,
  "lon": 23.8145683,
  "tags": {
    "bench": "yes",
    "bus": "yes",
    "highway": "bus_stop",
    "name": "Грандичи Магазин",
    "public_transport": "platform",
    "source": "survey"
  }
},
{
  "type": "node",
  "id": 540450803,
  "lat": 53.7224492,
  "lon": 23.8139446,
  "tags": {
    "bench": "yes",
    "bus": "yes",
    "highway": "bus_stop",
    "name": "Грандичи Магазин",
    "public_transport": "platform",
    "source": "survey"
  }
},
{
  "type": "node",
  "id": 540450810,
  "lat": 53.7430259,
  "lon": 23.8266453,
  "tags": {
    "bus": "yes",
    "highway": "bus_stop",
    "public_transport": "platform",
    "shelter": "no",
    "source": "survey"
  }
},
{
  "type": "node",
  "id": 540450812,
  "lat": 53.7430098,
  "lon": 23.8253393,
  "tags": {
    "bus": "yes",
    "highway": "bus_stop",
    "public_transport": "platform",
    "shelter": "no",
    "source": "survey"
  }
},
{
  "type": "node",
  "id": 540468193,
  "lat": 53.7076157,
  "lon": 23.8162003,
  "tags": {
    "bus": "yes",
    "highway": "bus_stop",
    "name": "Гронитекс",
    "public_transport": "platform",
    "shelter": "yes",
    "trolleybus": "yes"
  }
},
{
  "type": "node",
  "id": 540468194,
  "lat": 53.7066361,
  "lon": 23.8158803,
  "tags": {
    "bus": "yes",
    "highway": "bus_stop",
    "name": "Гронитекс",
    "public_transport": "platform",
    "shelter": "yes",
    "trolleybus": "yes"
  }
},
{
  "type": "node",
  "id": 540468199,
  "lat": 53.7048087,
  "lon": 23.8156511,
  "tags": {
    "bench": "yes",
    "bus": "yes",
    "highway": "bus_stop",
    "name": "Сквер памяти войнов афганцев",
    "name:be": "Сквер памяці войнаў аўганцаў",
    "name:ru": "Сквер памяти войнов афганцев",
    "old_name": "улица Курчатова",
    "public_transport": "platform",
    "shelter": "yes",
    "trolleybus": "yes"
  }
},
{
  "type": "node",
  "id": 540468228,
  "lat": 53.7104013,
  "lon": 23.8143716,
  "tags": {
    "bus": "yes",
    "highway": "bus_stop",
    "name": "улица Богуцкого",
    "name:be": "вуліца Багуцкага",
    "name:ru": "улица Богуцкого",
    "public_transport": "platform",
    "shelter": "yes",
    "trolleybus": "yes"
  }
},
{
  "type": "node",
  "id": 540468240,
  "lat": 53.7127556,
  "lon": 23.8141094,
  "tags": {
    "bus": "yes",
    "highway": "bus_stop",
    "name": "улица Богуцкого",
    "name:be": "вуліца Багуцкага",
    "name:ru": "улица Богуцкого",
    "public_transport": "platform",
    "shelter": "yes",
    "trolleybus": "yes"
  }
},
{
  "type": "node",
  "id": 541216748,
  "lat": 53.7482681,
  "lon": 23.8236332,
  "tags": {
    "bench": "yes",
    "bus": "yes",
    "highway": "bus_stop",
    "name": "Богатая улица",
    "name:be": "Багатая вуліца",
    "name:ru": "Богатая улица",
    "public_transport": "platform",
    "shelter": "no",
    "source": "survey"
  }
},
{
  "type": "node",
  "id": 541317153,
  "lat": 53.7521829,
  "lon": 23.8392270,
  "tags": {
    "bus": "yes",
    "highway": "bus_stop",
    "public_transport": "platform"
  }
},
{
  "type": "node",
  "id": 541317339,
  "lat": 53.7523882,
  "lon": 23.8384017,
  "tags": {
    "bus": "yes",
    "highway": "bus_stop",
    "public_transport": "platform"
  }
},
{
  "type": "node",
  "id": 550172056,
  "lat": 53.6403258,
  "lon": 23.8441877,
  "tags": {
    "bus": "yes",
    "highway": "bus_stop",
    "name": "Почта",
    "name:be": "Пошта",
    "name:ru": "Почта",
    "public_transport": "platform"
  }
},
{
  "type": "node",
  "id": 550195828,
  "lat": 53.6412277,
  "lon": 23.8448097,
  "tags": {
    "bus": "yes",
    "highway": "bus_stop",
    "name": "ЖЭС №20",
    "name:be": "ЖЭС №20",
    "name:ru": "ЖЭС №20",
    "public_transport": "platform"
  }
},
{
  "type": "node",
  "id": 550400917,
  "lat": 53.6436593,
  "lon": 23.8506260,
  "tags": {
    "bus": "yes",
    "highway": "bus_stop",
    "int_name": "vulica Kabiaka",
    "name": "улица Кабяка",
    "name:be": "вуліца Кабяка",
    "name:ru": "улица Кабяка",
    "public_transport": "platform"
  }
},
{
  "type": "node",
  "id": 558675966,
  "lat": 53.7040683,
  "lon": 23.8065815,
  "tags": {
    "bus": "yes",
    "highway": "bus_stop",
    "name": "Институт Последипломного Образования",
    "public_transport": "platform",
    "shelter": "yes"
  }
},
{
  "type": "node",
  "id": 558676018,
  "lat": 53.7026579,
  "lon": 23.8067991,
  "tags": {
    "bench": "yes",
    "bus": "yes",
    "highway": "bus_stop",
    "name": "Поликлиника №4",
    "name:be": "Паліклініка №4",
    "name:ru": "Поликлиника №4",
    "public_transport": "platform",
    "shelter": "yes",
    "trolleybus": "yes"
  }
},
{
  "type": "node",
  "id": 558676030,
  "lat": 53.7034197,
  "lon": 23.8080681,
  "tags": {
    "alt_name": "ДК \"Юность\"",
    "bench": "yes",
    "bus": "yes",
    "highway": "bus_stop",
    "name": "колледж Приборостроения",
    "public_transport": "platform",
    "shelter": "yes",
    "source": "survey",
    "trolleybus": "yes"
  }
},
{
  "type": "node",
  "id": 559449960,
  "lat": 53.6718505,
  "lon": 23.7673669,
  "tags": {
    "bus": "yes",
    "highway": "bus_stop",
    "name": "Школа",
    "name:be": "Школа",
    "name:ru": "Школа",
    "public_transport": "platform"
  }
},
{
  "type": "node",
  "id": 559449990,
  "lat": 53.6720507,
  "lon": 23.7664253,
  "tags": {
    "bus": "yes",
    "highway": "bus_stop",
    "name": "Школа",
    "name:be": "Школа",
    "name:ru": "Школа",
    "public_transport": "platform"
  }
},
{
  "type": "node",
  "id": 559488479,
  "lat": 53.6747852,
  "lon": 23.7748062,
  "tags": {
    "bus": "yes",
    "highway": "bus_stop",
    "name": "Лососно",
    "public_transport": "platform",
    "shelter": "yes",
    "source": "survey"
  }
},
{
  "type": "node",
  "id": 559614286,
  "lat": 53.6554305,
  "lon": 23.7876032,
  "tags": {
    "bus": "yes",
    "highway": "bus_stop",
    "name": "улица Репина",
    "name:be": "вуліца Рэпіна",
    "name:ru": "улица Репина",
    "public_transport": "platform",
    "source": "yahoo"
  }
},
{
  "type": "node",
  "id": 566474014,
  "lat": 53.7157641,
  "lon": 23.8122421,
  "tags": {
    "bus": "yes",
    "highway": "bus_stop",
    "int_name": "vulica Horkaha",
    "name": "улица Горького",
    "name:be": "вуліца Горкага",
    "name:ru": "улица Горького",
    "public_transport": "platform",
    "shelter": "yes",
    "source": "survey",
    "trolleybus": "yes"
  }
},
{
  "type": "node",
  "id": 566477282,
  "lat": 53.7156606,
  "lon": 23.8129338,
  "tags": {
    "bus": "yes",
    "highway": "bus_stop",
    "int_name": "vulica Horkaha",
    "name": "улица Горького",
    "name:be": "вуліца Горкага",
    "name:ru": "улица Горького",
    "public_transport": "platform",
    "source": "survey",
    "trolleybus": "yes"
  }
},
{
  "type": "node",
  "id": 571696869,
  "lat": 53.7011408,
  "lon": 23.8488600,
  "tags": {
    "bench": "yes",
    "bus": "yes",
    "highway": "bus_stop",
    "name": "Торговое предприятие \"Лимож\"",
    "name:be": "Гандлёвае прадпрыемства \"Лімож\"",
    "name:ru": "Торговое предприятие \"Лимож\"",
    "old_name": "СШ №28",
    "public_transport": "platform",
    "shelter": "yes",
    "source": "survey"
  }
},
{
  "type": "node",
  "id": 571696879,
  "lat": 53.7006139,
  "lon": 23.8505033,
  "tags": {
    "bench": "yes",
    "bus": "yes",
    "highway": "bus_stop",
    "name": "СШ № 28",
    "name:be": "СШ № 28",
    "name:ru": "СШ № 28",
    "public_transport": "platform",
    "shelter": "yes",
    "source": "survey"
  }
},
{
  "type": "node",
  "id": 571696980,
  "lat": 53.6950673,
  "lon": 23.8542744,
  "tags": {
    "bus": "yes",
    "highway": "bus_stop",
    "name": "Районные электрические сети",
    "name:be": "Раённыя электрычныя сеткі",
    "name:ru": "Районные электрические сети",
    "old_name": "улица Тавлая",
    "public_transport": "platform",
    "shelter": "yes",
    "source": "survey"
  }
},
{
  "type": "node",
  "id": 571697053,
  "lat": 53.6983789,
  "lon": 23.8551512,
  "tags": {
    "bus": "yes",
    "highway": "bus_stop",
    "name": "ЖЭС №19",
    "name:be": "ЖЭС №19",
    "name:ru": "ЖЭС №19",
    "old_name": "улица Брикеля",
    "public_transport": "platform",
    "shelter": "yes",
    "source": "survey"
  }
},
{
  "type": "node",
  "id": 571697067,
  "lat": 53.6991570,
  "lon": 23.8545267,
  "tags": {
    "bus": "yes",
    "highway": "bus_stop",
    "name": "ЖЭС №19",
    "name:be": "ЖЭС №19",
    "name:ru": "ЖЭС №19",
    "old_name": "улица Брикеля",
    "public_transport": "platform",
    "shelter": "yes",
    "source": "survey"
  }
},
{
  "type": "node",
  "id": 571697087,
  "lat": 53.7012743,
  "lon": 23.8497634,
  "tags": {
    "bus": "yes",
    "highway": "bus_stop",
    "name": "СШ № 28",
    "name:be": "СШ № 28",
    "name:ru": "СШ № 28",
    "public_transport": "platform",
    "shelter": "no",
    "source": "survey"
  }
},
{
  "type": "node",
  "id": 571723336,
  "lat": 53.7064028,
  "lon": 23.8493072,
  "tags": {
    "bench": "yes",
    "bus": "yes",
    "highway": "bus_stop",
    "name": "СШ № 36",
    "name:be": "СШ № 36",
    "name:ru": "СШ № 36",
    "public_transport": "platform",
    "shelter": "yes",
    "source": "survey"
  }
},
{
  "type": "node",
  "id": 571723353,
  "lat": 53.7076545,
  "lon": 23.8498571,
  "tags": {
    "bench": "yes",
    "bus": "yes",
    "highway": "bus_stop",
    "name": "СШ № 36",
    "name:be": "СШ № 36",
    "name:ru": "СШ № 36",
    "public_transport": "platform",
    "shelter": "yes",
    "source": "survey"
  }
},
{
  "type": "node",
  "id": 571724656,
  "lat": 53.7101872,
  "lon": 23.8494018,
  "tags": {
    "bench": "yes",
    "bus": "yes",
    "highway": "bus_stop",
    "int_name": "vulica Limoža",
    "name": "улица Лиможа",
    "name:be": "вуліца Ліможа",
    "name:ru": "улица Лиможа",
    "public_transport": "platform",
    "shelter": "yes",
    "source": "survey"
  }
},
{
  "type": "node",
  "id": 571724659,
  "lat": 53.7120464,
  "lon": 23.8497823,
  "tags": {
    "bus": "yes",
    "highway": "bus_stop",
    "int_name": "vulica Limoža",
    "name": "улица Лиможа",
    "name:be": "вуліца Ліможа",
    "name:ru": "улица Лиможа",
    "public_transport": "platform",
    "shelter": "yes",
    "source": "survey"
  }
},
{
  "type": "node",
  "id": 571727605,
  "lat": 53.7072473,
  "lon": 23.8390571,
  "tags": {
    "bench": "yes",
    "bus": "yes",
    "highway": "bus_stop",
    "name": "Гроднооблнефтепродукт",
    "name:be": "Гроднааблнафтапрадукт",
    "name:ru": "Гроднооблнефтепродукт",
    "old_name": "Нефтебаза",
    "public_transport": "platform",
    "shelter": "yes",
    "source": "survey",
    "trolleybus": "yes"
  }
},
{
  "type": "node",
  "id": 571727611,
  "lat": 53.7108154,
  "lon": 23.8396605,
  "tags": {
    "bus": "yes",
    "highway": "bus_stop",
    "name": "Девятовка",
    "name:be": "Дзевятоўка",
    "name:ru": "Девятовка",
    "public_transport": "platform",
    "shelter": "yes",
    "source": "survey",
    "trolleybus": "yes"
  }
},
{
  "type": "node",
  "id": 572299808,
  "lat": 53.6999443,
  "lon": 23.8584678,
  "tags": {
    "bus": "yes",
    "highway": "bus_stop",
    "int_name": "Padkryžackaja vulica",
    "name": "Падрыжацкая улица",
    "name:be": "Падрыжацкая вуліца",
    "name:ru": "Падрыжацкая улица",
    "public_transport": "platform",
    "source": "survey"
  }
},
{
  "type": "node",
  "id": 572300012,
  "lat": 53.7042796,
  "lon": 23.8586024,
  "tags": {
    "bus": "yes",
    "highway": "bus_stop",
    "name": "улица Тавлая",
    "name:be": "вуліца Таўлая",
    "name:ru": "улица Тавлая",
    "public_transport": "platform",
    "shelter": "yes",
    "source": "survey"
  }
},
{
  "type": "node",
  "id": 574866391,
  "lat": 53.7053702,
  "lon": 23.7957977,
  "tags": {
    "bench": "yes",
    "bus": "yes",
    "highway": "bus_stop",
    "name": "улица Домбровского",
    "name:be": "вуліца Дамброўскага",
    "name:ru": "улица Домбровского",
    "public_transport": "platform",
    "route_ref": "7;20;28",
    "shelter": "no"
  }
},
{
  "type": "node",
  "id": 575962840,
  "lat": 53.6829056,
  "lon": 23.8067772,
  "tags": {
    "bench": "yes",
    "bus": "yes",
    "highway": "bus_stop",
    "int_name": "Viasnovaja vulica",
    "name": "Весенняя улица",
    "name:be": "Вясновая вуліца",
    "name:ru": "Весенняя улица",
    "public_transport": "platform",
    "shelter": "yes",
    "trolleybus": "yes"
  }
},
{
  "type": "node",
  "id": 577361981,
  "lat": 53.6960956,
  "lon": 23.7972793,
  "tags": {
    "bus": "yes",
    "highway": "bus_stop",
    "name": "Институт биохимии",
    "name:be": "Інстытут біяхіміі",
    "name:ru": "Институт биохимии",
    "public_transport": "platform",
    "shelter": "yes",
    "source": "survey"
  }
},
{
  "type": "node",
  "id": 598298392,
  "lat": 53.6431765,
  "lon": 23.8599339,
  "tags": {
    "bus": "yes",
    "highway": "bus_stop",
    "name": "улица Химиков",
    "name:be": "вуліца Хімікаў",
    "name:ru": "улица Химиков",
    "public_transport": "platform"
  }
},
{
  "type": "node",
  "id": 598298393,
  "lat": 53.6424150,
  "lon": 23.8605604,
  "tags": {
    "bus": "yes",
    "highway": "bus_stop",
    "name": "улица Химиков",
    "name:be": "вуліца Хімікаў",
    "name:ru": "улица Химиков",
    "public_transport": "platform"
  }
},
{
  "type": "node",
  "id": 648549185,
  "lat": 53.6649582,
  "lon": 23.8610346,
  "tags": {
    "bench": "yes",
    "bus": "yes",
    "highway": "bus_stop",
    "name": "Румлёвский проспект",
    "name:be": "Румлёўскі праспект",
    "name:ru": "Румлёвский проспект",
    "old_name": "СТОА",
    "public_transport": "platform",
    "shelter": "yes",
    "source": "survey",
    "trolleybus": "yes"
  }
},
{
  "type": "node",
  "id": 660628859,
  "lat": 53.6923259,
  "lon": 23.8348546,
  "tags": {
    "bus": "yes",
    "highway": "bus_stop",
    "name": "Хлебозавод",
    "name:be": "Хлебазавод",
    "name:ru": "Хлебозавод",
    "public_transport": "platform"
  }
},
{
  "type": "node",
  "id": 660629167,
  "lat": 53.7077644,
  "lon": 23.8401007,
  "tags": {
    "bus": "yes",
    "highway": "bus_stop",
    "name": "Гроднооблнефтепродукт",
    "name:be": "Гроднааблнафтапрадукт",
    "name:ru": "Гроднооблнефтепродукт",
    "old_name": "Нефтебаза",
    "public_transport": "platform",
    "trolleybus": "yes"
  }
},
{
  "type": "node",
  "id": 661079466,
  "lat": 53.7049814,
  "lon": 23.8181557,
  "tags": {
    "bench": "yes",
    "bus": "yes",
    "highway": "bus_stop",
    "name": "Радиоволна",
    "name:be": "Радыёхваля",
    "name:ru": "Радиоволна",
    "old_name:ru": "Автомагнитола",
    "public_transport": "platform",
    "shelter": "yes",
    "source": "survey",
    "trolleybus": "yes"
  }
},
{
  "type": "node",
  "id": 661087659,
  "lat": 53.7041730,
  "lon": 23.8168894,
  "tags": {
    "bench": "yes",
    "bus": "yes",
    "highway": "bus_stop",
    "name": "колледж Легкой Промышленности",
    "public_transport": "platform",
    "shelter": "yes",
    "trolleybus": "yes"
  }
},
{
  "type": "node",
  "id": 674941480,
  "lat": 53.7004433,
  "lon": 23.8301178,
  "tags": {
    "bench": "yes",
    "bus": "yes",
    "highway": "bus_stop",
    "name": "МЧС",
    "name:be": "МНС",
    "name:ru": "МЧС",
    "public_transport": "platform",
    "shelter": "yes"
  }
},
{
  "type": "node",
  "id": 687191676,
  "lat": 53.7138558,
  "lon": 23.8260309,
  "tags": {
    "highway": "bus_stop",
    "name": "завод \"БелТАПАЗ\"",
    "name:ru": "завод \"БелТАПАЗ\"",
    "public_transport": "platform",
    "trolleybus": "yes"
  }
},
{
  "type": "node",
  "id": 700322741,
  "lat": 53.6494228,
  "lon": 23.8445509,
  "tags": {
    "bus": "yes",
    "highway": "bus_stop",
    "name": "проспект Клецкова",
    "name:be": "праспект Кляцкога",
    "name:ru": "проспект Клецкова",
    "public_transport": "platform",
    "shelter": "yes",
    "trolleybus": "yes"
  }
},
{
  "type": "node",
  "id": 721265675,
  "lat": 53.6323456,
  "lon": 23.8911167,
  "tags": {
    "bench": "yes",
    "bus": "yes",
    "highway": "bus_stop",
    "name": "Погораны",
    "name:be": "Пагараны",
    "name:ru": "Погораны",
    "public_transport": "platform",
    "shelter": "yes"
  }
},
{
  "type": "node",
  "id": 721382302,
  "lat": 53.7082236,
  "lon": 23.8045148,
  "tags": {
    "bus": "yes",
    "highway": "bus_stop",
    "name": "улица Врублевского",
    "name:be": "вуліца Урублеўскага",
    "name:ru": "улица Врублевского",
    "public_transport": "platform",
    "shelter": "yes",
    "source": "survey"
  }
},
{
  "type": "node",
  "id": 724399827,
  "lat": 53.6527830,
  "lon": 23.8521592,
  "tags": {
    "bus": "yes",
    "highway": "bus_stop",
    "int_name": "praspiekt Janki Kupaly",
    "name": "проспект Янки Купалы",
    "name:be": "праспект Янкі Купалы",
    "name:ru": "проспект Янки Купалы",
    "public_transport": "platform",
    "shelter": "yes",
    "source": "survey",
    "trolleybus": "yes"
  }
},
{
  "type": "node",
  "id": 724447433,
  "lat": 53.6565222,
  "lon": 23.8573671,
  "tags": {
    "bench": "yes",
    "bus": "yes",
    "highway": "bus_stop",
    "name": "Румлёво",
    "name:ru": "Румлёво",
    "public_transport": "platform",
    "shelter": "no",
    "source": "survey",
    "trolleybus": "yes"
  }
},
{
  "type": "node",
  "id": 736634019,
  "lat": 53.6702611,
  "lon": 23.7486052,
  "tags": {
    "bus": "yes",
    "highway": "bus_stop",
    "name": "Рябиновая улица",
    "name:be": "Рабінавая вуліца",
    "name:ru": "Рябиновая улица",
    "public_transport": "platform",
    "source": "yahoo"
  }
},
{
  "type": "node",
  "id": 736634023,
  "lat": 53.6734279,
  "lon": 23.7480385,
  "tags": {
    "bus": "yes",
    "highway": "bus_stop",
    "name": "Дачная улица",
    "public_transport": "platform",
    "source": "yahoo"
  }
},
{
  "type": "node",
  "id": 736634034,
  "lat": 53.6723527,
  "lon": 23.7477204,
  "tags": {
    "bus": "yes",
    "highway": "bus_stop",
    "name": "Дачная улица",
    "public_transport": "platform",
    "source": "yahoo"
  }
},
{
  "type": "node",
  "id": 736634047,
  "lat": 53.6694056,
  "lon": 23.7416619,
  "tags": {
    "bus": "yes",
    "highway": "bus_stop",
    "name": "Васильковая улица",
    "public_transport": "platform",
    "source": "yahoo"
  }
},
{
  "type": "node",
  "id": 736634066,
  "lat": 53.6697802,
  "lon": 23.7453971,
  "tags": {
    "bus": "yes",
    "highway": "bus_stop",
    "name": "Рябиновая улица",
    "name:be": "Рабінавая вуліца",
    "name:ru": "Рябиновая улица",
    "public_transport": "platform",
    "source": "yahoo"
  }
},
{
  "type": "node",
  "id": 752022868,
  "lat": 53.6431046,
  "lon": 23.8690711,
  "tags": {
    "bus": "yes",
    "highway": "bus_stop",
    "name": "Южная улица",
    "name:be": "Паўднёвая вуліца",
    "name:ru": "Южная улица",
    "public_transport": "platform"
  }
},
{
  "type": "node",
  "id": 769817040,
  "lat": 53.6516187,
  "lon": 23.8329860,
  "tags": {
    "bench": "yes",
    "bus": "yes",
    "highway": "bus_stop",
    "name": "улица Томина",
    "name:be": "вуліца Томіна",
    "name:ru": "улица Томина",
    "public_transport": "platform",
    "shelter": "yes"
  }
},
{
  "type": "node",
  "id": 769817041,
  "lat": 53.6572242,
  "lon": 23.8582971,
  "tags": {
    "bench": "yes",
    "bus": "yes",
    "highway": "bus_stop",
    "name": "Румлёво",
    "name:ru": "Румлёво",
    "public_transport": "platform",
    "shelter": "yes",
    "source": "survey",
    "trolleybus": "yes"
  }
},
{
  "type": "node",
  "id": 769817042,
  "lat": 53.6540794,
  "lon": 23.8489765,
  "tags": {
    "bench": "yes",
    "bus": "yes",
    "highway": "bus_stop",
    "name": "гостиница \"Турист\"",
    "name:be": "гасцініца \"Турыст\"",
    "name:ru": "гостиница \"Турист\"",
    "public_transport": "platform",
    "shelter": "yes",
    "trolleybus": "yes"
  }
},
{
  "type": "node",
  "id": 769817043,
  "lat": 53.6548899,
  "lon": 23.8478977,
  "tags": {
    "bench": "yes",
    "bus": "yes",
    "highway": "bus_stop",
    "name": "гостиница \"Турист\"",
    "name:be": "гасцініца \"Турыст\"",
    "name:ru": "гостиница \"Турист\"",
    "public_transport": "platform",
    "shelter": "yes",
    "trolleybus": "yes"
  }
},
{
  "type": "node",
  "id": 769847373,
  "lat": 53.6612069,
  "lon": 23.8150988,
  "tags": {
    "bench": "yes",
    "bus": "yes",
    "highway": "bus_stop",
    "name": "улица Суворова",
    "name:be": "вуліца Суворава",
    "name:ru": "улица Суворова",
    "public_transport": "platform",
    "shelter": "yes",
    "trolleybus": "yes"
  }
},
{
  "type": "node",
  "id": 769847374,
  "lat": 53.6744936,
  "lon": 23.8581635,
  "tags": {
    "alt_name:be": "Перамаганосная вуліца",
    "bench": "yes",
    "bus": "yes",
    "highway": "bus_stop",
    "name": "улица Победоносная",
    "name:be": "вуліца Перамоганосная",
    "name:ru": "улица Победоносная",
    "public_transport": "platform",
    "trolleybus": "yes"
  }
},
{
  "type": "node",
  "id": 769847375,
  "lat": 53.6669290,
  "lon": 23.8205087,
  "tags": {
    "bench": "yes",
    "bus": "yes",
    "highway": "bus_stop",
    "name": "Табачная фабрика",
    "name:be": "Тытунёвая фабрыка",
    "name:ru": "Табачная фабрика",
    "public_transport": "platform",
    "shelter": "yes",
    "trolleybus": "yes"
  }
},
{
  "type": "node",
  "id": 769847376,
  "lat": 53.6665231,
  "lon": 23.8260198,
  "tags": {
    "bench": "yes",
    "bus": "yes",
    "highway": "bus_stop",
    "name": "Акционерное Общество \"БелКард\"",
    "name:be": "Акцыянернае Таварыства \"БелКард\"",
    "name:ru": "Акционерное Общество \"БелКард\"",
    "public_transport": "platform",
    "shelter": "yes",
    "trolleybus": "yes"
  }
},
{
  "type": "node",
  "id": 769847377,
  "lat": 53.6678104,
  "lon": 23.8232635,
  "tags": {
    "bench": "yes",
    "bus": "yes",
    "highway": "bus_stop",
    "name": "Областная филармония",
    "name:be": "Абласная філармонія",
    "name:ru": "Областная филармония",
    "public_transport": "platform",
    "shelter": "yes",
    "trolleybus": "yes"
  }
},
{
  "type": "node",
  "id": 769847378,
  "lat": 53.6617871,
  "lon": 23.8170420,
  "tags": {
    "bench": "yes",
    "bus": "yes",
    "highway": "bus_stop",
    "name": "улица Суворова 72",
    "name:be": "вуліца Суворава",
    "name:ru": "улица Суворова",
    "public_transport": "platform",
    "trolleybus": "yes"
  }
},
{
  "type": "node",
  "id": 769847379,
  "lat": 53.6620808,
  "lon": 23.8309624,
  "tags": {
    "bench": "yes",
    "bus": "yes",
    "highway": "bus_stop",
    "name": "улица Победы",
    "name:be": "вуліца Перамогі",
    "name:ru": "улица Победы",
    "public_transport": "platform",
    "shelter": "yes",
    "trolleybus": "yes"
  }
},
{
  "type": "node",
  "id": 769847380,
  "lat": 53.6592091,
  "lon": 23.8361505,
  "tags": {
    "bench": "yes",
    "bus": "yes",
    "highway": "bus_stop",
    "name": "Автобусный парк",
    "name:be": "Аўтобусны парк",
    "name:ru": "Автобусный парк",
    "old_name": "улица Пестрака",
    "public_transport": "platform",
    "shelter": "yes",
    "trolleybus": "yes"
  }
},
{
  "type": "node",
  "id": 769847382,
  "lat": 53.6698700,
  "lon": 23.8175500,
  "tags": {
    "bench": "yes",
    "bus": "yes",
    "highway": "bus_stop",
    "name": "универсам \"Октябрьский\"",
    "name:ru": "Универсам «Октябрьский»",
    "public_transport": "platform",
    "shelter": "yes",
    "trolleybus": "yes"
  }
},
{
  "type": "node",
  "id": 769847383,
  "lat": 53.6468153,
  "lon": 23.8365368,
  "tags": {
    "bench": "yes",
    "bus": "yes",
    "highway": "bus_stop",
    "name": "Индурское шоссе",
    "name:be": "Індурская шаша",
    "name:ru": "Индурское шоссе",
    "public_transport": "platform",
    "shelter": "yes"
  }
},
{
  "type": "node",
  "id": 769847384,
  "lat": 53.6592607,
  "lon": 23.8083655,
  "tags": {
    "bench": "yes",
    "bus": "yes",
    "highway": "bus_stop",
    "name": "улица Кутузова",
    "name:be": "вуліца Кутузава",
    "name:ru": "улица Кутузова",
    "public_transport": "platform",
    "shelter": "yes"
  }
},
{
  "type": "node",
  "id": 769847385,
  "lat": 53.6747300,
  "lon": 23.8574000,
  "tags": {
    "alt_name:be": "Перамаганосная вуліца",
    "bench": "yes",
    "bus": "yes",
    "highway": "bus_stop",
    "name": "улица Победоносная",
    "name:be": "вуліца Перамоганосная",
    "name:ru": "улица Победоносная",
    "public_transport": "platform",
    "trolleybus": "yes"
  }
},
{
  "type": "node",
  "id": 769847386,
  "lat": 53.6694851,
  "lon": 23.8234270,
  "tags": {
    "bench": "yes",
    "bus": "yes",
    "highway": "bus_stop",
    "int_name": "vulica Harnavych",
    "name": "улица Горновых",
    "name:be": "вуліца Гарнавых",
    "name:ru": "улица Горновых",
    "public_transport": "platform",
    "shelter": "yes",
    "trolleybus": "yes"
  }
},
{
  "type": "node",
  "id": 769847387,
  "lat": 53.6617799,
  "lon": 23.8319242,
  "tags": {
    "bench": "yes",
    "bus": "yes",
    "highway": "bus_stop",
    "name": "Автобусный парк",
    "name:be": "Аўтобусны парк",
    "name:ru": "Автобусный парк",
    "public_transport": "platform",
    "shelter": "yes",
    "trolleybus": "yes"
  }
},
{
  "type": "node",
  "id": 769847388,
  "lat": 53.6729553,
  "lon": 23.8606046,
  "tags": {
    "bench": "yes",
    "bus": "yes",
    "highway": "bus_stop",
    "int_name": "Uschodniaja vulica",
    "name": "Гипермаркет \"Алми\"",
    "name:ru": "Гипермаркет \"Алми\"",
    "public_transport": "platform",
    "shelter": "yes",
    "trolleybus": "yes"
  }
},
{
  "type": "node",
  "id": 769847389,
  "lat": 53.6593181,
  "lon": 23.8107284,
  "tags": {
    "bench": "yes",
    "bus": "yes",
    "highway": "bus_stop",
    "name": "Стоматологическая поликлиника",
    "name:be": "Стаматалагічная паліклініка",
    "name:ru": "Стоматологическая поликлиника",
    "name:uk": "Стоматологічна поліклініка",
    "public_transport": "platform",
    "shelter": "yes",
    "trolleybus": "yes"
  }
},
{
  "type": "node",
  "id": 771956595,
  "lat": 53.6541434,
  "lon": 23.8307637,
  "tags": {
    "bench": "yes",
    "bus": "yes",
    "highway": "bus_stop",
    "name": "Плодовощесервис",
    "name:be": "ПлодаАгароднінаСэрвіс",
    "name:ru": "ПлодОвощеСервис",
    "public_transport": "platform",
    "shelter": "yes"
  }
},
{
  "type": "node",
  "id": 771956997,
  "lat": 53.6553766,
  "lon": 23.8310180,
  "tags": {
    "bench": "yes",
    "bus": "yes",
    "highway": "bus_stop",
    "name": "Плодовощесервис",
    "name:be": "ПлодаАгароднінаСэрвіс",
    "name:ru": "ПлодОвощеСервис",
    "public_transport": "platform",
    "shelter": "yes"
  }
},
{
  "type": "node",
  "id": 772146718,
  "lat": 53.6554500,
  "lon": 23.8196700,
  "tags": {
    "bench": "yes",
    "bus": "yes",
    "highway": "bus_stop",
    "name": "РСУ–2",
    "name:be": "РБУ–2",
    "name:ru": "РСУ–2",
    "public_transport": "platform",
    "shelter": "yes"
  }
},
{
  "type": "node",
  "id": 778512633,
  "lat": 53.6440158,
  "lon": 23.7729793,
  "tags": {
    "bench": "yes",
    "highway": "bus_stop",
    "name": "Колбасино",
    "name:be": "Калбасіно",
    "name:ru": "Колбасино",
    "public_transport": "platform",
    "shelter": "no",
    "source": "survey"
  }
},
{
  "type": "node",
  "id": 810018755,
  "lat": 53.6567654,
  "lon": 23.7800574,
  "tags": {
    "bus": "yes",
    "highway": "bus_stop",
    "name": "СШ №37",
    "name:be": "СШ №37",
    "name:ru": "СШ №37",
    "public_transport": "platform",
    "source": "survey"
  }
},
{
  "type": "node",
  "id": 810018765,
  "lat": 53.6691713,
  "lon": 23.7900698,
  "tags": {
    "bus": "yes",
    "highway": "bus_stop",
    "name": "улица Ольги Соломовой",
    "name:be": "вуліца Вольгі Саломавай",
    "name:ru": "улица Ольги Соломовой",
    "public_transport": "platform",
    "source": "survey"
  }
},
{
  "type": "node",
  "id": 810018790,
  "lat": 53.6724723,
  "lon": 23.7931264,
  "tags": {
    "bus": "yes",
    "highway": "bus_stop",
    "name": "1000 мелочей",
    "name:be": "1000 дробязей",
    "name:ru": "1000 мелочей",
    "name:uk": "1000 дрібниць",
    "public_transport": "platform",
    "source": "survey"
  }
},
{
  "type": "node",
  "id": 810057025,
  "lat": 53.6458901,
  "lon": 23.7767225,
  "tags": {
    "bench": "yes",
    "bus": "yes",
    "highway": "bus_stop",
    "name": "Колбасино",
    "name:be": "Калбасіно",
    "name:ru": "Колбасино",
    "public_transport": "platform",
    "shelter": "yes"
  }
},
{
  "type": "node",
  "id": 810057067,
  "lat": 53.6533896,
  "lon": 23.7785107,
  "tags": {
    "bus": "yes",
    "highway": "bus_stop",
    "name": "улица Ольги Соломовой",
    "name:be": "вуліца Вольгі Саломавай",
    "name:ru": "улица Ольги Соломовой",
    "public_transport": "platform",
    "source": "survey"
  }
},
{
  "type": "node",
  "id": 810198164,
  "lat": 53.6411890,
  "lon": 23.7417665,
  "tags": {
    "bench": "yes",
    "bus": "yes",
    "highway": "bus_stop",
    "name": "Тарусичи",
    "name:be": "Тарусічы",
    "name:ru": "Тарусичи",
    "public_transport": "platform",
    "shelter": "yes",
    "source": "survey"
  }
},
{
  "type": "node",
  "id": 810327445,
  "lat": 53.6750183,
  "lon": 23.7748927,
  "tags": {
    "bus": "yes",
    "highway": "bus_stop",
    "name": "Лососно",
    "public_transport": "platform",
    "shelter": "no",
    "source": "survey"
  }
},
{
  "type": "node",
  "id": 816814535,
  "lat": 53.6777483,
  "lon": 23.8300754,
  "tags": {
    "bus": "yes",
    "highway": "bus_stop",
    "name": "Советская площадь",
    "name:be": "Савецкая плошча",
    "name:ru": "Советская площадь",
    "public_transport": "platform",
    "shelter": "yes",
    "source": "survey",
    "trolleybus": "yes"
  }
},
{
  "type": "node",
  "id": 816859292,
  "lat": 53.6788017,
  "lon": 23.8298334,
  "tags": {
    "highway": "bus_stop",
    "name": "Дом Муравьёвых",
    "name:be": "Савецкая плошча",
    "name:ru": "Советская площадь",
    "public_transport": "platform",
    "shelter": "no",
    "source": "survey",
    "trolleybus": "yes"
  }
},
{
  "type": "node",
  "id": 824217329,
  "lat": 53.6288318,
  "lon": 23.8539712,
  "tags": {
    "bus": "yes",
    "highway": "bus_stop",
    "name": "Магазин",
    "public_transport": "platform",
    "shelter": "yes",
    "source": "yahoo"
  }
},
{
  "type": "node",
  "id": 824217336,
  "lat": 53.6301728,
  "lon": 23.8562698,
  "tags": {
    "bus": "yes",
    "highway": "bus_stop",
    "name": "Южный",
    "name:be": "Паўднёвы",
    "name:ru": "Южный",
    "public_transport": "platform"
  }
},
{
  "type": "node",
  "id": 824217353,
  "lat": 53.6274816,
  "lon": 23.8506997,
  "tags": {
    "bus": "yes",
    "highway": "bus_stop",
    "name": "улица Садакова",
    "name:be": "вуліца Садакова",
    "name:ru": "улица Садакова",
    "public_transport": "platform",
    "shelter": "no",
    "source": "yahoo"
  }
},
{
  "type": "node",
  "id": 824217358,
  "lat": 53.6212215,
  "lon": 23.8411415,
  "tags": {
    "bench": "yes",
    "bus": "yes",
    "highway": "bus_stop",
    "int_name": "Paŭdniovy",
    "name": "Южный",
    "name:be": "Паўднёвы",
    "name:ru": "Южный",
    "public_transport": "platform",
    "shelter": "yes"
  }
},
{
  "type": "node",
  "id": 824217361,
  "lat": 53.6230996,
  "lon": 23.8413588,
  "tags": {
    "bus": "yes",
    "highway": "bus_stop",
    "int_name": "Zornaja vulica",
    "name": "Звёздная улица",
    "name:be": "Зорная вуліца",
    "name:ru": "Звёздная улица",
    "public_transport": "platform",
    "source": "yahoo"
  }
},
{
  "type": "node",
  "id": 824462246,
  "lat": 53.6279842,
  "lon": 23.8523772,
  "tags": {
    "bus": "yes",
    "highway": "bus_stop",
    "name": "улица Садакова",
    "name:be": "вуліца Садакова",
    "name:ru": "улица Садакова",
    "public_transport": "platform",
    "shelter": "yes",
    "source": "yahoo"
  }
},
{
  "type": "node",
  "id": 828093362,
  "lat": 53.6299872,
  "lon": 23.8235424,
  "tags": {
    "bus": "yes",
    "highway": "bus_stop",
    "name": "ЖД переезд",
    "public_transport": "platform",
    "shelter": "no",
    "source": "survey"
  }
},
{
  "type": "node",
  "id": 836147035,
  "lat": 53.6851376,
  "lon": 23.8805223,
  "tags": {
    "bus": "yes",
    "highway": "bus_stop",
    "int_name": "vulica Karskaha",
    "name": "улица Карского",
    "name:be": "вуліца Карскага",
    "name:ru": "улица Карского",
    "public_transport": "platform"
  }
},
{
  "type": "node",
  "id": 836148496,
  "lat": 53.6845325,
  "lon": 23.8802135,
  "tags": {
    "bus": "yes",
    "highway": "bus_stop",
    "int_name": "vulica Karskaha",
    "name": "улица Карского",
    "name:be": "вуліца Карскага",
    "name:ru": "улица Карского",
    "public_transport": "platform"
  }
},
{
  "type": "node",
  "id": 847177176,
  "lat": 53.7212639,
  "lon": 23.8134680,
  "tags": {
    "bus": "yes",
    "highway": "bus_stop",
    "int_name": "Hrandzickaja vulica",
    "name": "Грандичская улица",
    "name:be": "Грандзіцкая вуліца",
    "name:ru": "Грандичская улица",
    "public_transport": "platform",
    "route_ref": "11;25",
    "shelter": "yes",
    "source": "survey"
  }
},
{
  "type": "node",
  "id": 847177180,
  "lat": 53.7539455,
  "lon": 23.8240639,
  "tags": {
    "bench": "yes",
    "bus": "yes",
    "highway": "bus_stop",
    "name": "Зарица",
    "name:be": "Зарыца",
    "name:ru": "Зарица",
    "public_transport": "platform",
    "shelter": "yes",
    "source": "survey"
  }
},
{
  "type": "node",
  "id": 847177186,
  "lat": 53.7119922,
  "lon": 23.8137810,
  "tags": {
    "bus": "yes",
    "highway": "bus_stop",
    "name": "улица Богуцкого",
    "name:be": "вуліца Багуцкага",
    "name:ru": "улица Богуцкого",
    "note": "нужно уточнить. остановки нет, просто карман",
    "public_transport": "platform",
    "source": "survey"
  }
},
{
  "type": "node",
  "id": 890949599,
  "lat": 53.6981876,
  "lon": 23.8396241,
  "tags": {
    "bus": "yes",
    "highway": "bus_stop",
    "name": "Электротехнический колледж",
    "name:be": "Электратэхнічны каледж",
    "name:ru": "Электротехнический колледж",
    "public_transport": "platform",
    "trolleybus": "yes"
  }
},
{
  "type": "node",
  "id": 890949668,
  "lat": 53.6938445,
  "lon": 23.8386628,
  "tags": {
    "bus": "yes",
    "highway": "bus_stop",
    "int_name": "vulica Cieraškovaj",
    "name": "улица Терешковой",
    "name:be": "вуліца Церашковай",
    "name:ru": "улица Терешковой",
    "public_transport": "platform",
    "trolleybus": "yes"
  }
},
{
  "type": "node",
  "id": 890949690,
  "lat": 53.7002620,
  "lon": 23.8396533,
  "tags": {
    "bus": "yes",
    "highway": "bus_stop",
    "name": "улица Брикеля",
    "name:be": "вуліца Брыкеля",
    "name:ru": "улица Брикеля",
    "public_transport": "platform",
    "trolleybus": "yes"
  }
},
{
  "type": "node",
  "id": 917139972,
  "lat": 53.6609902,
  "lon": 23.8304080,
  "tags": {
    "bench": "yes",
    "bus": "yes",
    "highway": "bus_stop",
    "name": "Дорожно-строительный трест №6",
    "name:be": "Дарожна-будаўнічы трэст №6",
    "name:ru": "Дорожно-строительный трест №6",
    "old_name": "Автобусный парк №1",
    "public_transport": "platform",
    "shelter": "yes"
  }
},
{
  "type": "node",
  "id": 969186894,
  "lat": 53.6772992,
  "lon": 23.8303693,
  "tags": {
    "bench": "yes",
    "bus": "yes",
    "highway": "bus_stop",
    "name": "Советская площадь",
    "name:be": "Савецкая плошча",
    "name:ru": "Советская площадь",
    "public_transport": "platform",
    "trolleybus": "yes"
  }
},
{
  "type": "node",
  "id": 969186897,
  "lat": 53.6436712,
  "lon": 23.8402723,
  "tags": {
    "bus": "yes",
    "highway": "bus_stop",
    "name": "универсам \"Вишнявец\"",
    "name:be": "універсам \"Вішнявец\"",
    "name:ru": "универсам \"Вишнявец\"",
    "public_transport": "platform",
    "shelter": "yes"
  }
},
{
  "type": "node",
  "id": 969186900,
  "lat": 53.6902820,
  "lon": 23.8658789,
  "tags": {
    "bus": "yes",
    "highway": "bus_stop",
    "name": "улица Заслоново",
    "name:be": "вуліца Заслонава",
    "name:ru": "улица Заслоново",
    "public_transport": "platform"
  }
},
{
  "type": "node",
  "id": 969186903,
  "lat": 53.6904387,
  "lon": 23.8640743,
  "tags": {
    "bus": "yes",
    "highway": "bus_stop",
    "name": "улица Заслоново",
    "name:be": "вуліца Заслонава",
    "name:ru": "улица Заслоново",
    "public_transport": "platform"
  }
},
{
  "type": "node",
  "id": 969186904,
  "lat": 53.6795339,
  "lon": 23.8544128,
  "tags": {
    "bus": "yes",
    "highway": "bus_stop",
    "name": "13-я школа",
    "name:be": "13-я школа",
    "name:ru": "13-я школа",
    "public_transport": "platform"
  }
},
{
  "type": "node",
  "id": 969186910,
  "lat": 53.6895674,
  "lon": 23.8572094,
  "tags": {
    "bus": "yes",
    "highway": "bus_stop",
    "name": "Локомотивное депо",
    "public_transport": "platform"
  }
},
{
  "type": "node",
  "id": 969186914,
  "lat": 53.6449761,
  "lon": 23.8392821,
  "tags": {
    "bus": "yes",
    "highway": "bus_stop",
    "name": "универсам \"Вишнявец\"",
    "name:be": "універсам \"Вішнявец\"",
    "name:ru": "универсам \"Вишнявец\"",
    "public_transport": "platform",
    "shelter": "yes"
  }
},
{
  "type": "node",
  "id": 969186915,
  "lat": 53.6834778,
  "lon": 23.8546632,
  "tags": {
    "bus": "yes",
    "highway": "bus_stop",
    "name": "5-я школа",
    "name:be": "5-я школа",
    "name:ru": "5-я школа",
    "public_transport": "platform"
  }
},
{
  "type": "node",
  "id": 969186916,
  "lat": 53.6763488,
  "lon": 23.8432417,
  "tags": {
    "bus": "yes",
    "highway": "bus_stop",
    "name": "Автовокзал",
    "name:be": "Аўтавакзал",
    "name:ru": "Автовокзал",
    "public_transport": "platform",
    "shelter": "yes",
    "trolleybus": "yes"
  }
},
{
  "type": "node",
  "id": 969186924,
  "lat": 53.6853195,
  "lon": 23.8542961,
  "tags": {
    "bus": "yes",
    "highway": "bus_stop",
    "name": "5-я школа",
    "name:be": "5-я школа",
    "name:ru": "5-я школа",
    "public_transport": "platform"
  }
},
{
  "type": "node",
  "id": 969186925,
  "lat": 53.6431905,
  "lon": 23.8489121,
  "tags": {
    "bus": "yes",
    "highway": "bus_stop",
    "int_name": "vulica Kabiaka",
    "name": "улица Кабяка",
    "name:be": "вуліца Кабяка",
    "name:ru": "улица Кабяка",
    "public_transport": "platform"
  }
},
{
  "type": "node",
  "id": 969358804,
  "lat": 53.6899993,
  "lon": 23.8468245,
  "tags": {
    "bench": "yes",
    "bus": "yes",
    "highway": "bus_stop",
    "int_name": "vulica Kachanoŭskaha",
    "name": "улица Кохановского",
    "name:be": "вуліца Каханоўскага",
    "name:ru": "улица Кохановского",
    "public_transport": "platform",
    "shelter": "yes"
  }
},
{
  "type": "node",
  "id": 969358821,
  "lat": 53.7152667,
  "lon": 23.8493517,
  "tags": {
    "bench": "yes",
    "bus": "yes",
    "highway": "bus_stop",
    "name": "СШ № 27",
    "name:be": "СШ № 27",
    "name:ru": "СШ № 27",
    "public_transport": "platform",
    "shelter": "yes"
  }
},
{
  "type": "node",
  "id": 969358826,
  "lat": 53.6891614,
  "lon": 23.8464828,
  "tags": {
    "bench": "yes",
    "bus": "yes",
    "highway": "bus_stop",
    "name": "Зоопарк",
    "name:be": "Заапарк",
    "name:ru": "Зоопарк",
    "public_transport": "platform",
    "shelter": "no"
  }
},
{
  "type": "node",
  "id": 969358849,
  "lat": 53.7113414,
  "lon": 23.8594652,
  "tags": {
    "bench": "yes",
    "bus": "yes",
    "highway": "bus_stop",
    "int_name": "Dzieviatoŭka–5",
    "name": "Девятовка–5",
    "name:be": "Дзевятоўка–5",
    "name:ru": "Девятовка–5",
    "public_transport": "platform",
    "shelter": "yes"
  }
},
{
  "type": "node",
  "id": 969358852,
  "lat": 53.6954318,
  "lon": 23.8554112,
  "tags": {
    "bus": "yes",
    "highway": "bus_stop",
    "name": "Районные электрические сети",
    "name:be": "Раённыя электрычныя сеткі",
    "name:ru": "Районные электрические сети",
    "old_name": "улица Тавлая",
    "public_transport": "platform"
  }
},
{
  "type": "node",
  "id": 969358856,
  "lat": 53.7144220,
  "lon": 23.8584413,
  "tags": {
    "bus": "yes",
    "highway": "bus_stop",
    "int_name": "Dzieviatoŭka–4",
    "name": "Девятовка–4",
    "name:be": "Дзевятоўка–4",
    "name:ru": "Девятовка–4",
    "old_name": "улица Тавлая",
    "public_transport": "platform"
  }
},
{
  "type": "node",
  "id": 969358860,
  "lat": 53.6714712,
  "lon": 23.8545589,
  "tags": {
    "bus": "yes",
    "highway": "bus_stop",
    "name": "Лидская улица",
    "name:be": "Лідская вуліца",
    "name:ru": "Лидская улица",
    "public_transport": "platform"
  }
},
{
  "type": "node",
  "id": 969358868,
  "lat": 53.7161142,
  "lon": 23.8486200,
  "tags": {
    "bench": "yes",
    "bus": "yes",
    "highway": "bus_stop",
    "name": "парк Районная",
    "name:be": "парк Раённая",
    "name:ru": "парк Районная",
    "old_name": "Лапенки",
    "public_transport": "platform",
    "shelter": "yes"
  }
},
{
  "type": "node",
  "id": 969358884,
  "lat": 53.6720524,
  "lon": 23.8539894,
  "tags": {
    "bus": "yes",
    "highway": "bus_stop",
    "name": "Лидская улица",
    "name:be": "Лідская вуліца",
    "name:ru": "Лидская улица",
    "public_transport": "platform"
  }
},
{
  "type": "node",
  "id": 969358888,
  "lat": 53.6602473,
  "lon": 23.8300394,
  "tags": {
    "bench": "yes",
    "bus": "yes",
    "highway": "bus_stop",
    "name": "Дорожно-строительный трест №6",
    "name:be": "Дарожна-будаўнічы трэст №6",
    "name:ru": "Дорожно-строительный трест №6",
    "old_name": "Автобусный парк №1",
    "public_transport": "platform",
    "shelter": "yes"
  }
},
{
  "type": "node",
  "id": 969358897,
  "lat": 53.7158680,
  "lon": 23.8506385,
  "tags": {
    "bench": "yes",
    "bus": "yes",
    "highway": "bus_stop",
    "name": "парк Районная",
    "name:be": "парк Раённая",
    "name:ru": "парк Районная",
    "old_name": "Лапенки",
    "public_transport": "platform",
    "shelter": "yes"
  }
},
{
  "type": "node",
  "id": 993522297,
  "lat": 53.6222168,
  "lon": 23.8661301,
  "tags": {
    "bus": "yes",
    "highway": "bus_stop",
    "name": "Вещевой рынок",
    "public_transport": "platform"
  }
},
{
  "type": "node",
  "id": 999272156,
  "lat": 53.6258405,
  "lon": 23.8467081,
  "tags": {
    "bus": "yes",
    "highway": "bus_stop",
    "name": "улица Шарипова",
    "name:be": "вуліца Шарыпава",
    "name:ru": "улица Шарипова",
    "public_transport": "platform"
  }
},
{
  "type": "node",
  "id": 999407759,
  "lat": 53.6257832,
  "lon": 23.8470407,
  "tags": {
    "bus": "yes",
    "highway": "bus_stop",
    "name": "улица Шарипова",
    "name:be": "вуліца Шарыпава",
    "name:ru": "улица Шарипова",
    "public_transport": "platform"
  }
},
{
  "type": "node",
  "id": 999466751,
  "lat": 53.6293480,
  "lon": 23.8555999,
  "tags": {
    "bus": "yes",
    "highway": "bus_stop",
    "name": "Магазин",
    "public_transport": "platform"
  }
},
{
  "type": "node",
  "id": 1015286529,
  "lat": 53.6842957,
  "lon": 23.8403849,
  "tags": {
    "bus": "yes",
    "highway": "bus_stop",
    "name": "Университет",
    "name:be": "Універсітэт",
    "name:ru": "Университет",
    "public_transport": "platform"
  }
},
{
  "type": "node",
  "id": 1015286531,
  "lat": 53.6707675,
  "lon": 23.8025831,
  "tags": {
    "bench": "yes",
    "bus": "yes",
    "highway": "bus_stop",
    "name": "гостиница \"Гродно\"",
    "public_transport": "platform",
    "shelter": "yes",
    "trolleybus": "yes"
  }
},
{
  "type": "node",
  "id": 1015286532,
  "lat": 53.6843049,
  "lon": 23.8387755,
  "tags": {
    "bench": "yes",
    "bus": "yes",
    "highway": "bus_stop",
    "name": "Университет",
    "name:be": "Універсітэт",
    "name:ru": "Университет",
    "public_transport": "platform",
    "shelter": "yes"
  }
},
{
  "type": "node",
  "id": 1015286533,
  "lat": 53.6715705,
  "lon": 23.8040908,
  "tags": {
    "bench": "yes",
    "bus": "yes",
    "highway": "bus_stop",
    "name": "Обувная фабрика \"Неман\"",
    "name:be": "Абутковая фабрыка \"Нёман\"",
    "name:ru": "Обувная фабрика \"Неман\"",
    "public_transport": "platform",
    "shelter": "yes",
    "trolleybus": "yes"
  }
},
{
  "type": "node",
  "id": 1015286535,
  "lat": 53.6806717,
  "lon": 23.8407743,
  "tags": {
    "bus": "yes",
    "highway": "bus_stop",
    "int_name": "vulica Karbyšava",
    "name": "улица Карбышева",
    "name:be": "вуліца Карбышава",
    "name:ru": "улица Карбышева",
    "public_transport": "platform"
  }
},
{
  "type": "node",
  "id": 1017096351,
  "lat": 53.7005838,
  "lon": 23.8191926,
  "tags": {
    "bench": "yes",
    "bus": "yes",
    "highway": "bus_stop",
    "name": "Родильный дом",
    "name:be": "Радзільны дом",
    "name:ru": "Родильный дом",
    "public_transport": "platform",
    "shelter": "yes",
    "trolleybus": "yes"
  }
},
{
  "type": "node",
  "id": 1030655684,
  "lat": 53.6362952,
  "lon": 23.8489129,
  "tags": {
    "bus": "yes",
    "highway": "bus_stop",
    "name": "Малаховичи",
    "public_transport": "platform"
  }
},
{
  "type": "node",
  "id": 1030655685,
  "lat": 53.6352170,
  "lon": 23.8506021,
  "tags": {
    "bus": "yes",
    "highway": "bus_stop",
    "int_name": "Višniavieckaja vulica",
    "name": "Вишневецкая улица",
    "name:be": "Вішнявецкая вуліца",
    "name:ru": "Вишневецкая улица",
    "public_transport": "platform"
  }
},
{
  "type": "node",
  "id": 1176774196,
  "lat": 53.7398308,
  "lon": 23.8116182,
  "tags": {
    "bus": "yes",
    "highway": "bus_stop",
    "name": "Очистные сооружения",
    "public_transport": "platform"
  }
},
{
  "type": "node",
  "id": 1176774207,
  "lat": 53.7185067,
  "lon": 23.8078134,
  "tags": {
    "bus": "yes",
    "highway": "bus_stop",
    "name": "КСМ",
    "public_transport": "platform",
    "trolleybus": "yes"
  }
},
{
  "type": "node",
  "id": 1194420972,
  "lat": 53.6901800,
  "lon": 23.8267966,
  "tags": {
    "bench": "yes",
    "bus": "yes",
    "highway": "bus_stop",
    "name": "улица Островского",
    "name:be": "вуліца Астроўскага",
    "name:ru": "улица Островского",
    "public_transport": "platform",
    "shelter": "yes",
    "trolleybus": "yes"
  }
},
{
  "type": "node",
  "id": 1248149821,
  "lat": 53.6537641,
  "lon": 23.7942304,
  "tags": {
    "bus": "yes",
    "highway": "bus_stop",
    "name": "Строительный лицей",
    "name:be": "Будаўнічы ліцэй",
    "name:ru": "Строительный лицей",
    "public_transport": "platform",
    "trolleybus": "yes"
  }
},
{
  "type": "node",
  "id": 1248150148,
  "lat": 53.6536873,
  "lon": 23.7950624,
  "tags": {
    "bus": "yes",
    "highway": "bus_stop",
    "name": "Строительный лицей",
    "name:be": "Будаўнічы ліцэй",
    "name:ru": "Строительный лицей",
    "public_transport": "platform",
    "trolleybus": "yes"
  }
},
{
  "type": "node",
  "id": 1256409910,
  "lat": 53.6705939,
  "lon": 23.8113306,
  "tags": {
    "bus": "yes",
    "highway": "bus_stop",
    "name": "улица Советских Пограничников",
    "name:be": "вуліца Савецкіх Пагранічнікаў",
    "name:ru": "улица Советских Пограничников",
    "public_transport": "platform",
    "trolleybus": "yes"
  }
},
{
  "type": "node",
  "id": 1256410412,
  "lat": 53.6710566,
  "lon": 23.8098216,
  "tags": {
    "bus": "yes",
    "highway": "bus_stop",
    "name": "улица Советских Пограничников",
    "name:be": "вуліца Савецкіх Пагранічнікаў",
    "name:ru": "улица Советских Пограничников",
    "public_transport": "platform",
    "trolleybus": "yes"
  }
},
{
  "type": "node",
  "id": 1256772885,
  "lat": 53.6712078,
  "lon": 23.8212776,
  "tags": {
    "bus": "yes",
    "highway": "bus_stop",
    "name": "Больница №2",
    "public_transport": "platform"
  }
},
{
  "type": "node",
  "id": 1256774191,
  "lat": 53.6718593,
  "lon": 23.8199528,
  "tags": {
    "highway": "bus_stop",
    "name": "2-я Городская больница"
  }
},
{
  "type": "node",
  "id": 1256779549,
  "lat": 53.6757756,
  "lon": 23.8329121,
  "tags": {
    "bus": "yes",
    "highway": "bus_stop",
    "name": "улица Свердлова",
    "name:be": "вуліца Свярдлова",
    "name:ru": "улица Свердлова",
    "public_transport": "platform"
  }
},
{
  "type": "node",
  "id": 1256784537,
  "lat": 53.6895372,
  "lon": 23.8448494,
  "tags": {
    "bus": "yes",
    "highway": "bus_stop",
    "name": "СШ №2",
    "public_transport": "platform"
  }
},
{
  "type": "node",
  "id": 1256845828,
  "lat": 53.6991603,
  "lon": 23.8400373,
  "tags": {
    "bus": "yes",
    "highway": "bus_stop",
    "name": "Электротехнический колледж",
    "name:be": "Электратэхнічны каледж",
    "name:ru": "Электротехнический колледж",
    "public_transport": "platform",
    "trolleybus": "yes"
  }
},
{
  "type": "node",
  "id": 1271367429,
  "lat": 53.7019040,
  "lon": 23.8400464,
  "tags": {
    "bus": "yes",
    "highway": "bus_stop",
    "name": "улица Дзержинского",
    "name:be": "вуліца Дзяржынскага",
    "name:ru": "улица Дзержинского",
    "public_transport": "platform",
    "trolleybus": "yes"
  }
},
{
  "type": "node",
  "id": 1290401320,
  "lat": 53.7116039,
  "lon": 23.8400610,
  "tags": {
    "bus": "yes",
    "highway": "bus_stop",
    "name": "Девятовка",
    "name:be": "Дзевятоўка",
    "name:ru": "Девятовка",
    "public_transport": "platform",
    "trolleybus": "yes"
  }
},
{
  "type": "node",
  "id": 1290405083,
  "lat": 53.7154654,
  "lon": 23.8396676,
  "tags": {
    "bus": "yes",
    "covered": "yes",
    "highway": "bus_stop",
    "name": "улица Белые Росы",
    "name:be": "вуліца Белыя Росы",
    "name:ru": "улица Белые Росы",
    "public_transport": "platform",
    "shelter": "yes"
  }
},
{
  "type": "node",
  "id": 1290407694,
  "lat": 53.7167357,
  "lon": 23.8401143,
  "tags": {
    "bench": "yes",
    "bus": "yes",
    "covered": "yes",
    "highway": "bus_stop",
    "name": "улица Белые Росы",
    "name:be": "вуліца Белыя Росы",
    "name:ru": "улица Белые Росы",
    "public_transport": "platform",
    "shelter": "yes"
  }
},
{
  "type": "node",
  "id": 1290407696,
  "lat": 53.7160317,
  "lon": 23.8408115,
  "tags": {
    "bus": "yes",
    "highway": "bus_stop",
    "name": "улица Белые Росы",
    "name:be": "вуліца Белыя Росы",
    "name:ru": "улица Белые Росы",
    "public_transport": "platform"
  }
},
{
  "type": "node",
  "id": 1326288764,
  "lat": 53.6721248,
  "lon": 23.7393211,
  "tags": {
    "bus": "yes",
    "highway": "bus_stop",
    "int_name": "Baranavičy",
    "name": "Барановичи",
    "name:be": "Баранавічы",
    "name:ru": "Барановичи",
    "public_transport": "platform"
  }
},
{
  "type": "node",
  "id": 1326302611,
  "lat": 53.6602059,
  "lon": 23.7359469,
  "tags": {
    "highway": "bus_stop"
  }
},
{
  "type": "node",
  "id": 1326302637,
  "lat": 53.6515981,
  "lon": 23.7346474,
  "tags": {
    "highway": "bus_stop"
  }
},
{
  "type": "node",
  "id": 1326432634,
  "lat": 53.6518933,
  "lon": 23.7343818,
  "tags": {
    "highway": "bus_stop"
  }
},
{
  "type": "node",
  "id": 1326828671,
  "lat": 53.6581372,
  "lon": 23.8439646,
  "tags": {
    "bus": "yes",
    "highway": "bus_stop",
    "name": "Музыкальный колледж",
    "name:be": "Музычны каледж",
    "name:ru": "Музыкальный колледж",
    "public_transport": "platform",
    "shelter": "yes"
  }
},
{
  "type": "node",
  "id": 1328437289,
  "lat": 53.6725347,
  "lon": 23.8157798,
  "tags": {
    "bus": "yes",
    "highway": "bus_stop",
    "int_name": "vulica Haharyna",
    "name": "улица Гагарина",
    "name:be": "вуліца Гагарына",
    "name:ru": "улица Гагарина",
    "public_transport": "platform",
    "shelter": "yes"
  }
},
{
  "type": "node",
  "id": 1328437318,
  "lat": 53.6731748,
  "lon": 23.8122519,
  "tags": {
    "bus": "yes",
    "highway": "bus_stop",
    "int_name": "vulica Haharyna",
    "name": "улица Гагарина",
    "name:be": "вуліца Гагарына",
    "name:ru": "улица Гагарина",
    "public_transport": "platform"
  }
},
{
  "type": "node",
  "id": 1523242464,
  "lat": 53.6561527,
  "lon": 23.8008567,
  "tags": {
    "bus": "yes",
    "highway": "bus_stop",
    "name": "Гродно АТЭП",
    "public_transport": "platform",
    "trolleybus": "yes"
  }
},
{
  "type": "node",
  "id": 1523245557,
  "lat": 53.6585760,
  "lon": 23.8075994,
  "tags": {
    "bus": "yes",
    "highway": "bus_stop",
    "name": "Стоматологическая поликлиника",
    "name:be": "Стаматалагічная паліклініка",
    "name:ru": "Стоматологическая поликлиника",
    "public_transport": "platform",
    "trolleybus": "yes"
  }
},
{
  "type": "node",
  "id": 1523246676,
  "lat": 53.6653968,
  "lon": 23.8199001,
  "tags": {
    "bus": "yes",
    "highway": "bus_stop",
    "name": "Табачная фабрика",
    "name:be": "Тытунёвая фабрыка",
    "name:ru": "Табачная фабрика",
    "public_transport": "platform",
    "trolleybus": "yes"
  }
},
{
  "type": "node",
  "id": 1523250230,
  "lat": 53.6627425,
  "lon": 23.7832160,
  "tags": {
    "bench": "yes",
    "bus": "yes",
    "highway": "bus_stop",
    "name": "Магазин \"Фламинго\"",
    "name:be": "Магазін \"Фламінга\"",
    "name:ru": "Магазин \"Фламинго\"",
    "old_name": "Фолюш",
    "public_transport": "platform",
    "shelter": "yes"
  }
},
{
  "type": "node",
  "id": 1523251173,
  "lat": 53.6542386,
  "lon": 23.7792820,
  "tags": {
    "bus": "yes",
    "highway": "bus_stop",
    "name": "улица Ольги Соломовой",
    "name:be": "вуліца Вольгі Саломавай",
    "name:ru": "улица Ольги Соломовой",
    "public_transport": "platform"
  }
},
{
  "type": "node",
  "id": 1523251556,
  "lat": 53.6494734,
  "lon": 23.7833626,
  "tags": {
    "bus": "yes",
    "highway": "bus_stop",
    "name": "Гродножилстрой",
    "name:ru": "Гродножилстрой",
    "public_transport": "platform"
  }
},
{
  "type": "node",
  "id": 1523252006,
  "lat": 53.6500627,
  "lon": 23.7841027,
  "tags": {
    "bus": "yes",
    "highway": "bus_stop",
    "name": "Гродножилстрой",
    "name:ru": "Гродножилстрой",
    "public_transport": "platform"
  }
},
{
  "type": "node",
  "id": 1523252293,
  "lat": 53.6512120,
  "lon": 23.7884645,
  "tags": {
    "bus": "yes",
    "highway": "bus_stop",
    "name": "АЗС",
    "public_transport": "platform"
  }
},
{
  "type": "node",
  "id": 1523252489,
  "lat": 53.6513263,
  "lon": 23.7874796,
  "tags": {
    "bus": "yes",
    "highway": "bus_stop",
    "name": "АЗС",
    "public_transport": "platform"
  }
},
{
  "type": "node",
  "id": 1523253307,
  "lat": 53.6571769,
  "lon": 23.8122766,
  "tags": {
    "bus": "yes",
    "highway": "bus_stop",
    "name": "ГАП №2",
    "public_transport": "platform"
  }
},
{
  "type": "node",
  "id": 1523253312,
  "lat": 53.6581630,
  "lon": 23.8143143,
  "tags": {
    "bus": "yes",
    "highway": "bus_stop",
    "name": "ГАП №2",
    "public_transport": "platform"
  }
},
{
  "type": "node",
  "id": 1523253943,
  "lat": 53.6524791,
  "lon": 23.8075230,
  "tags": {
    "bus": "yes",
    "highway": "bus_stop",
    "name": "улица Пучкова",
    "name:be": "вуліца Пучкова",
    "name:ru": "улица Пучкова",
    "public_transport": "platform"
  }
},
{
  "type": "node",
  "id": 1523254214,
  "lat": 53.6539066,
  "lon": 23.8073567,
  "tags": {
    "bus": "yes",
    "highway": "bus_stop",
    "name": "улица Пучкова",
    "name:be": "вуліца Пучкова",
    "name:ru": "улица Пучкова",
    "public_transport": "platform"
  }
},
{
  "type": "node",
  "id": 1523254494,
  "lat": 53.6512652,
  "lon": 23.8106996,
  "tags": {
    "bus": "yes",
    "highway": "bus_stop",
    "int_name": "vulica Kalinina",
    "name": "улица Калинина",
    "name:be": "вуліца Калініна",
    "name:ru": "улица Калинина",
    "public_transport": "platform"
  }
},
{
  "type": "node",
  "id": 1523254861,
  "lat": 53.6505333,
  "lon": 23.8131234,
  "tags": {
    "bus": "yes",
    "highway": "bus_stop",
    "int_name": "vulica Kalinina",
    "name": "улица Калинина",
    "name:be": "вуліца Калініна",
    "name:ru": "улица Калинина",
    "public_transport": "platform"
  }
},
{
  "type": "node",
  "id": 1523255096,
  "lat": 53.6504697,
  "lon": 23.8150654,
  "tags": {
    "bus": "yes",
    "highway": "bus_stop",
    "name": "Краснознамённая улица",
    "name:be": "Чырвонасцяжная вуліца",
    "name:ru": "Краснознамённая улица",
    "public_transport": "platform"
  }
},
{
  "type": "node",
  "id": 1523255315,
  "lat": 53.6524711,
  "lon": 23.8184103,
  "tags": {
    "highway": "bus_stop",
    "name": "АЗС"
  }
},
{
  "type": "node",
  "id": 1523255490,
  "lat": 53.6520395,
  "lon": 23.8159694,
  "tags": {
    "bus": "yes",
    "highway": "bus_stop",
    "name": "АЗС",
    "public_transport": "platform"
  }
},
{
  "type": "node",
  "id": 1523257240,
  "lat": 53.6619299,
  "lon": 23.8033420,
  "tags": {
    "bus": "yes",
    "highway": "bus_stop",
    "name": "улица Соколовского",
    "name:be": "вуліца Сакалоўскаго",
    "name:ru": "улица Соколовского",
    "public_transport": "platform"
  }
},
{
  "type": "node",
  "id": 1523257242,
  "lat": 53.6629697,
  "lon": 23.8026954,
  "tags": {
    "bus": "yes",
    "highway": "bus_stop",
    "name": "улица Соколовского",
    "name:be": "вуліца Сакалоўскаго",
    "name:ru": "улица Соколовского",
    "public_transport": "platform"
  }
},
{
  "type": "node",
  "id": 1523259844,
  "lat": 53.6481324,
  "lon": 23.8091315,
  "tags": {
    "bench": "yes",
    "bus": "yes",
    "highway": "bus_stop",
    "name": "Издательская улица",
    "name:be": "Выдавецкая вуліца",
    "name:ru": "Издательская улица",
    "public_transport": "platform",
    "shelter": "yes"
  }
},
{
  "type": "node",
  "id": 1523259846,
  "lat": 53.6502146,
  "lon": 23.8025468,
  "tags": {
    "bench": "yes",
    "bus": "yes",
    "highway": "bus_stop",
    "name": "Окульная улица",
    "name:be": "Акульная вуліца",
    "name:ru": "Окульная улица",
    "public_transport": "platform",
    "shelter": "yes"
  }
},
{
  "type": "node",
  "id": 1523259849,
  "lat": 53.6494477,
  "lon": 23.8037513,
  "tags": {
    "bench": "yes",
    "bus": "yes",
    "highway": "bus_stop",
    "name": "Окульная улица",
    "name:be": "Акульная вуліца",
    "name:ru": "Окульная улица",
    "public_transport": "platform",
    "shelter": "yes"
  }
},
{
  "type": "node",
  "id": 1523488140,
  "lat": 53.6473809,
  "lon": 23.8309384,
  "tags": {
    "bench": "yes",
    "bus": "yes",
    "highway": "bus_stop",
    "name": "улица Славинского",
    "name:be": "вуліца Славінскага",
    "name:ru": "улица Славинского",
    "public_transport": "platform",
    "shelter": "yes",
    "trolleybus": "yes"
  }
},
{
  "type": "node",
  "id": 1523488162,
  "lat": 53.6459571,
  "lon": 23.8241787,
  "tags": {
    "bench": "yes",
    "bus": "yes",
    "highway": "bus_stop",
    "name": "Химволокно",
    "name:be": "Хімвалакно",
    "name:ru": "Химволокно",
    "public_transport": "platform",
    "shelter": "yes",
    "trolleybus": "yes"
  }
},
{
  "type": "node",
  "id": 1523488164,
  "lat": 53.6463619,
  "lon": 23.8244004,
  "tags": {
    "bench": "yes",
    "bus": "yes",
    "highway": "bus_stop",
    "name": "Химволокно",
    "name:be": "Хімвалакно",
    "name:ru": "Химволокно",
    "public_transport": "platform",
    "shelter": "yes",
    "trolleybus": "yes"
  }
},
{
  "type": "node",
  "id": 1523488166,
  "lat": 53.6472783,
  "lon": 23.8326310,
  "tags": {
    "bus": "yes",
    "highway": "bus_stop",
    "name": "улица Славинского",
    "name:be": "вуліца Славінскага",
    "name:ru": "улица Славинского",
    "public_transport": "platform",
    "trolleybus": "yes"
  }
},
{
  "type": "node",
  "id": 1523492652,
  "lat": 53.6371258,
  "lon": 23.8482860,
  "tags": {
    "bus": "yes",
    "highway": "bus_stop",
    "name": "Малаховичи",
    "public_transport": "platform"
  }
},
{
  "type": "node",
  "id": 1523494869,
  "lat": 53.6369876,
  "lon": 23.8558022,
  "tags": {
    "bus": "yes",
    "highway": "bus_stop",
    "name": "Вишневец–7",
    "name:be": "Вішнявец–7",
    "name:ru": "Вишневец–7",
    "public_transport": "platform"
  }
},
{
  "type": "node",
  "id": 1523495751,
  "lat": 53.6402330,
  "lon": 23.8641074,
  "tags": {
    "bus": "yes",
    "highway": "bus_stop",
    "name": "Вишневец",
    "name:be": "Вішнявец",
    "name:ru": "Вишневец",
    "public_transport": "platform"
  }
},
{
  "type": "node",
  "id": 1523499632,
  "lat": 53.6739277,
  "lon": 23.8652797,
  "tags": {
    "bench": "yes",
    "bus": "yes",
    "highway": "bus_stop",
    "int_name": "Traliejbusnaje upraŭliennie",
    "name": "Троллейбусное управление",
    "name:be": "Тралейбуснае упраўленне",
    "name:ru": "Троллейбусное управление",
    "public_transport": "platform",
    "shelter": "yes",
    "trolleybus": "yes"
  }
},
{
  "type": "node",
  "id": 1523500354,
  "lat": 53.6725186,
  "lon": 23.8776393,
  "tags": {
    "bus": "yes",
    "highway": "bus_stop",
    "name": "Судмедэкспертиза",
    "public_transport": "platform",
    "trolleybus": "yes"
  }
},
{
  "type": "node",
  "id": 1523500355,
  "lat": 53.6731629,
  "lon": 23.8721664,
  "tags": {
    "bus": "yes",
    "highway": "bus_stop",
    "name": "Курган Славы",
    "name:be": "Курган Славы",
    "name:ru": "Курган Славы",
    "old_name": "Автосервис",
    "public_transport": "platform",
    "trolleybus": "yes"
  }
},
{
  "type": "node",
  "id": 1545785655,
  "lat": 53.6475106,
  "lon": 23.8098946,
  "tags": {
    "bench": "yes",
    "bus": "yes",
    "highway": "bus_stop",
    "name": "Издательская улица",
    "name:be": "Выдавецкая вуліца",
    "name:ru": "Издательская улица",
    "public_transport": "platform",
    "shelter": "yes"
  }
},
{
  "type": "node",
  "id": 1598365230,
  "lat": 53.6727722,
  "lon": 23.8730444,
  "tags": {
    "bus": "yes",
    "highway": "bus_stop",
    "name": "Курган Славы",
    "name:be": "Курган Славы",
    "name:ru": "Курган Славы",
    "old_name": "Автосервис",
    "public_transport": "platform",
    "trolleybus": "yes"
  }
},
{
  "type": "node",
  "id": 1598365253,
  "lat": 53.6722739,
  "lon": 23.8782057,
  "tags": {
    "bus": "yes",
    "highway": "bus_stop",
    "name": "Судмедэкспертиза",
    "public_transport": "platform",
    "trolleybus": "yes"
  }
},
{
  "type": "node",
  "id": 1598365280,
  "lat": 53.6671967,
  "lon": 23.8011209,
  "tags": {
    "bus": "yes",
    "highway": "bus_stop",
    "name": "улица Поповича",
    "name:be": "вуліца Паповіча",
    "name:ru": "улица Поповича",
    "public_transport": "platform",
    "shelter": "yes",
    "trolleybus": "yes"
  }
},
{
  "type": "node",
  "id": 1638426900,
  "lat": 53.7064756,
  "lon": 23.8395822,
  "tags": {
    "bench": "yes",
    "bus": "yes",
    "highway": "bus_stop",
    "name": "Аптечный склад",
    "name:be": "Аптэчны склад",
    "name:ru": "Аптечный склад",
    "public_transport": "platform",
    "shelter": "yes",
    "trolleybus": "yes"
  }
},
{
  "type": "node",
  "id": 1638426911,
  "lat": 53.7056629,
  "lon": 23.8401129,
  "tags": {
    "bench": "yes",
    "bus": "yes",
    "highway": "bus_stop",
    "name": "Аптечный склад",
    "name:be": "Аптэчны склад",
    "name:ru": "Аптечный склад",
    "public_transport": "platform",
    "shelter": "yes",
    "trolleybus": "yes"
  }
},
{
  "type": "node",
  "id": 1638426912,
  "lat": 53.7009549,
  "lon": 23.8414376,
  "tags": {
    "bench": "yes",
    "bus": "yes",
    "highway": "bus_stop",
    "name": "улица Брикеля",
    "name:be": "вуліца Брыкеля",
    "name:ru": "улица Брикеля",
    "public_transport": "platform",
    "shelter": "yes"
  }
},
{
  "type": "node",
  "id": 1638426916,
  "lat": 53.7065553,
  "lon": 23.8295504,
  "tags": {
    "bench": "yes",
    "bus": "yes",
    "highway": "bus_stop",
    "name": "Господарчая улица",
    "name:be": "Гаспадарчая вуліца",
    "name:ru": "Господарчая улица",
    "public_transport": "platform",
    "shelter": "yes",
    "trolleybus": "yes"
  }
},
{
  "type": "node",
  "id": 1638426925,
  "lat": 53.7064818,
  "lon": 23.8274318,
  "tags": {
    "bench": "yes",
    "bus": "yes",
    "highway": "bus_stop",
    "name": "производство \"Автоагрегатов\"",
    "name:be": "вытворчасць \"Аўтаагрэгатаў\"",
    "name:ru": "производство \"Автоагрегатов\"",
    "public_transport": "platform",
    "shelter": "yes",
    "trolleybus": "yes"
  }
},
{
  "type": "node",
  "id": 1648213200,
  "lat": 53.6945118,
  "lon": 23.7880155,
  "tags": {
    "bus": "yes",
    "highway": "bus_stop",
    "name": "Поликлиника",
    "name:be": "Паліклініка",
    "name:ru": "Поликлиника",
    "public_transport": "platform"
  }
},
{
  "type": "node",
  "id": 1703461189,
  "lat": 53.7054695,
  "lon": 23.8591456,
  "tags": {
    "bus": "yes",
    "highway": "bus_stop",
    "name": "улица Тавлая",
    "name:be": "вуліца Таўлая",
    "name:ru": "улица Тавлая",
    "public_transport": "platform"
  }
},
{
  "type": "node",
  "id": 1703461238,
  "lat": 53.7067213,
  "lon": 23.8504604,
  "tags": {
    "bus": "yes",
    "highway": "bus_stop",
    "int_name": "vulica Kurčatava",
    "name": "улица Курчатова",
    "name:be": "вуліца Курчатава",
    "name:ru": "улица Курчатова",
    "public_transport": "platform"
  }
},
{
  "type": "node",
  "id": 1715874572,
  "lat": 53.6557559,
  "lon": 23.7852081,
  "tags": {
    "bench": "yes",
    "bus": "yes",
    "highway": "bus_stop",
    "name": "улица Данилова",
    "name:be": "вуліца Данілава",
    "name:ru": "улица Данилова",
    "public_transport": "platform",
    "shelter": "yes"
  }
},
{
  "type": "node",
  "id": 1729333393,
  "lat": 53.6214513,
  "lon": 23.8209868,
  "tags": {
    "bench": "yes",
    "bus": "yes",
    "covered": "yes",
    "highway": "bus_stop",
    "name": "улица Великая Ольшанка",
    "name:be": "вуліца Вялікая Альшанка",
    "name:ru": "улица Великая Ольшанка",
    "public_transport": "platform",
    "shelter": "yes"
  }
},
{
  "type": "node",
  "id": 1731282240,
  "lat": 53.6524205,
  "lon": 23.7944267,
  "tags": {
    "bus": "yes",
    "highway": "bus_stop",
    "name": "Производственный комбинат",
    "name:be": "Вытворчы камбінат",
    "name:ru": "Производственный комбинат",
    "public_transport": "platform"
  }
},
{
  "type": "node",
  "id": 1731539385,
  "lat": 53.6549158,
  "lon": 23.7859567,
  "tags": {
    "bus": "yes",
    "highway": "bus_stop",
    "name": "улица Репина",
    "name:be": "вуліца Рэпіна",
    "name:ru": "улица Репина",
    "public_transport": "platform"
  }
},
{
  "type": "node",
  "id": 1751614949,
  "lat": 53.6356524,
  "lon": 23.8086700,
  "tags": {
    "bus": "yes",
    "highway": "bus_stop",
    "name": "Фабричный",
    "name:be": "Фабрычны",
    "name:ru": "Фабричный",
    "public_transport": "platform"
  }
},
{
  "type": "node",
  "id": 1772031502,
  "lat": 53.6372991,
  "lon": 23.7978428,
  "tags": {
    "bench": "yes",
    "bus": "yes",
    "highway": "bus_stop",
    "name": "СП \"Теста\"",
    "name:ru": "СП \"Теста\"",
    "public_transport": "platform"
  }
},
{
  "type": "node",
  "id": 1775264966,
  "lat": 53.6842259,
  "lon": 23.8602007,
  "tags": {
    "bench": "yes",
    "bus": "yes",
    "highway": "bus_stop",
    "name": "Магистральная улица",
    "name:be": "Магістральная вуліца",
    "name:ru": "Магистральная улица",
    "public_transport": "platform",
    "shelter": "yes"
  }
},
{
  "type": "node",
  "id": 1775264970,
  "lat": 53.6850209,
  "lon": 23.8598120,
  "tags": {
    "bench": "yes",
    "bus": "yes",
    "highway": "bus_stop",
    "name": "Магистральная улица",
    "name:be": "Магістральная вуліца",
    "name:ru": "Магистральная улица",
    "public_transport": "platform",
    "shelter": "yes"
  }
},
{
  "type": "node",
  "id": 1778441497,
  "lat": 53.6254639,
  "lon": 23.8073306,
  "tags": {
    "bus": "yes",
    "highway": "bus_stop",
    "name": "улица Ольшанская",
    "name:be": "вуліца Альшанская",
    "name:ru": "улица Ольшанская",
    "public_transport": "platform"
  }
},
{
  "type": "node",
  "id": 1782787378,
  "lat": 53.7206435,
  "lon": 23.8388313,
  "tags": {
    "bench": "yes",
    "bus": "yes",
    "covered": "no",
    "highway": "bus_stop",
    "name": "Лапенки",
    "public_transport": "platform",
    "shelter": "yes"
  }
},
{
  "type": "node",
  "id": 1826098518,
  "lat": 53.6242159,
  "lon": 23.8134897,
  "tags": {
    "bench": "yes",
    "bus": "yes",
    "highway": "bus_stop",
    "name": "улица 8 Марта",
    "name:be": "вуліца 8 Сакавіка",
    "name:ru": "улица 8 Марта",
    "public_transport": "platform",
    "shelter": "yes"
  }
},
{
  "type": "node",
  "id": 1826098520,
  "lat": 53.6249639,
  "lon": 23.8118261,
  "tags": {
    "bus": "yes",
    "highway": "bus_stop",
    "name": "улица 8 Марта",
    "name:be": "вуліца 8 Сакавіка",
    "name:ru": "улица 8 Марта",
    "public_transport": "platform"
  }
},
{
  "type": "node",
  "id": 1850620819,
  "lat": 53.7055969,
  "lon": 23.8227619,
  "tags": {
    "bus": "yes",
    "highway": "bus_stop",
    "name": "производство \"Автоагрегатов\"",
    "name:be": "вытворчасць \"Аўтаагрэгатаў\"",
    "name:ru": "производство \"Автоагрегатов\"",
    "public_transport": "platform",
    "trolleybus": "yes"
  }
},
{
  "type": "node",
  "id": 1942475218,
  "lat": 53.6265648,
  "lon": 23.8041046,
  "tags": {
    "bench": "yes",
    "bus": "yes",
    "highway": "bus_stop",
    "name": "СШ № 39",
    "public_transport": "platform",
    "shelter": "yes"
  }
},
{
  "type": "node",
  "id": 1942546407,
  "lat": 53.6359005,
  "lon": 23.8109730,
  "tags": {
    "bus": "yes",
    "highway": "bus_stop",
    "name": "Фабричный",
    "name:be": "Фабрычны",
    "name:ru": "Фабричный",
    "public_transport": "platform"
  }
},
{
  "type": "node",
  "id": 1942546511,
  "lat": 53.6295605,
  "lon": 23.8221817,
  "tags": {
    "bus": "yes",
    "highway": "bus_stop",
    "public_transport": "platform"
  }
},
{
  "type": "node",
  "id": 1942546767,
  "lat": 53.6308502,
  "lon": 23.8126599,
  "tags": {
    "highway": "bus_stop",
    "name": "Фабричный",
    "name:be": "Фабрычны",
    "name:ru": "Фабричный",
    "public_transport": "platform"
  }
},
{
  "type": "node",
  "id": 2072145228,
  "lat": 53.6914986,
  "lon": 23.8376481,
  "tags": {
    "bus": "yes",
    "highway": "bus_stop",
    "name": "Госпиталь",
    "name:be": "Шпіталь",
    "name:ru": "Госпиталь",
    "public_transport": "platform",
    "trolleybus": "yes"
  }
},
{
  "type": "node",
  "id": 2072145229,
  "lat": 53.6494105,
  "lon": 23.8607439,
  "tags": {
    "bus": "yes",
    "highway": "bus_stop",
    "name": "Больница №4",
    "name:be": "Бальніца №4",
    "name:ru": "Больница №4",
    "public_transport": "platform"
  }
},
{
  "type": "node",
  "id": 2075107695,
  "lat": 53.6906623,
  "lon": 23.8347037,
  "tags": {
    "bus": "yes",
    "highway": "bus_stop",
    "name": "Детская больница",
    "name:be": "Дзіцячая бальніца",
    "name:ru": "Детская больница",
    "public_transport": "platform",
    "trolleybus": "yes"
  }
},
{
  "type": "node",
  "id": 2075107696,
  "lat": 53.7091640,
  "lon": 23.8053849,
  "tags": {
    "bus": "yes",
    "highway": "bus_stop",
    "name": "улица Врублевского",
    "name:be": "вуліца Урублеўскага",
    "name:ru": "улица Врублевского",
    "public_transport": "platform"
  }
},
{
  "type": "node",
  "id": 2075107697,
  "lat": 53.7092353,
  "lon": 23.8045949,
  "tags": {
    "bus": "yes",
    "highway": "bus_stop",
    "name": "улица Врублевского",
    "name:be": "вуліца Урублеўскага",
    "name:ru": "улица Врублевского",
    "public_transport": "platform"
  }
},
{
  "type": "node",
  "id": 2079132685,
  "lat": 53.6902150,
  "lon": 23.7884031,
  "tags": {
    "bus": "yes",
    "highway": "bus_stop",
    "name": "Гроднозеленстрой",
    "name:ru": "Гроднозеленстрой",
    "public_transport": "platform"
  }
},
{
  "type": "node",
  "id": 2079132692,
  "lat": 53.7006402,
  "lon": 23.8284446,
  "tags": {
    "bench": "yes",
    "bus": "yes",
    "highway": "bus_stop",
    "name": "МЧС",
    "name:be": "МНС",
    "name:ru": "МЧС",
    "public_transport": "platform",
    "shelter": "yes"
  }
},
{
  "type": "node",
  "id": 2079132703,
  "lat": 53.6954153,
  "lon": 23.7928530,
  "tags": {
    "bus": "yes",
    "highway": "bus_stop",
    "name": "Областная больница",
    "name:be": "Абласная бальніца",
    "name:ru": "Областная больница",
    "public_transport": "platform",
    "shelter": "yes"
  }
},
{
  "type": "node",
  "id": 2079132714,
  "lat": 53.6416926,
  "lon": 23.8431647,
  "tags": {
    "bus": "yes",
    "highway": "bus_stop",
    "name": "Почта",
    "name:be": "Пошта",
    "name:ru": "Почта",
    "public_transport": "platform"
  }
},
{
  "type": "node",
  "id": 2079132727,
  "lat": 53.7013102,
  "lon": 23.8381350,
  "tags": {
    "bench": "yes",
    "bus": "yes",
    "highway": "bus_stop",
    "name": "улица Дзержинского",
    "name:be": "вуліца Дзяржынскага",
    "name:ru": "улица Дзержинского",
    "public_transport": "platform",
    "shelter": "yes"
  }
},
{
  "type": "node",
  "id": 2090886205,
  "lat": 53.6753105,
  "lon": 23.8619122,
  "tags": {
    "bench": "yes",
    "bus": "yes",
    "highway": "bus_stop",
    "name": "Гроднопромстрой",
    "public_transport": "platform"
  }
},
{
  "type": "node",
  "id": 2090886206,
  "lat": 53.6791540,
  "lon": 23.8623705,
  "tags": {
    "bench": "yes",
    "bus": "yes",
    "highway": "bus_stop",
    "name": "Поликлиника №5",
    "name:be": "Паліклініка №5",
    "name:ru": "Поликлиника №5",
    "public_transport": "platform",
    "shelter": "yes"
  }
},
{
  "type": "node",
  "id": 2090886207,
  "lat": 53.6803552,
  "lon": 23.8630765,
  "tags": {
    "bench": "yes",
    "bus": "yes",
    "highway": "bus_stop",
    "name": "Поликлиника №5",
    "name:be": "Паліклініка №5",
    "name:ru": "Поликлиника №5",
    "public_transport": "platform",
    "shelter": "yes"
  }
},
{
  "type": "node",
  "id": 2194105380,
  "lat": 53.6720714,
  "lon": 23.8193852,
  "tags": {
    "bus": "yes",
    "highway": "bus_stop",
    "name": "Больница №2",
    "public_transport": "platform"
  }
},
{
  "type": "node",
  "id": 2194294116,
  "lat": 53.6952704,
  "lon": 23.8459006,
  "tags": {
    "bus": "yes",
    "highway": "bus_stop",
    "name": "Аграрный университет",
    "name:be": "Аграрны ўніверсітэт",
    "name:ru": "Аграрный университет",
    "public_transport": "platform"
  }
},
{
  "type": "node",
  "id": 2194294117,
  "lat": 53.6727796,
  "lon": 23.7951941,
  "tags": {
    "bench": "yes",
    "bus": "yes",
    "highway": "bus_stop",
    "name": "Больница скорой помощи",
    "public_transport": "platform",
    "shelter": "yes"
  }
},
{
  "type": "node",
  "id": 2194294118,
  "lat": 53.6734680,
  "lon": 23.7928303,
  "tags": {
    "bench": "yes",
    "bus": "yes",
    "highway": "bus_stop",
    "name": "Больница скорой помощи",
    "public_transport": "platform",
    "shelter": "yes"
  }
},
{
  "type": "node",
  "id": 2194294119,
  "lat": 53.6742048,
  "lon": 23.7853558,
  "tags": {
    "bus": "yes",
    "highway": "bus_stop",
    "name": "Воинская часть",
    "public_transport": "platform"
  }
},
{
  "type": "node",
  "id": 2194294120,
  "lat": 53.6745958,
  "lon": 23.7844439,
  "tags": {
    "bus": "yes",
    "highway": "bus_stop",
    "name": "Воинская часть",
    "public_transport": "platform"
  }
},
{
  "type": "node",
  "id": 2194294121,
  "lat": 53.6942767,
  "lon": 23.8393342,
  "tags": {
    "bench": "yes",
    "bus": "yes",
    "highway": "bus_stop",
    "int_name": "vulica Cieraškovaj",
    "name": "улица Терешковой",
    "name:be": "вуліца Церашковай",
    "name:ru": "улица Терешковой",
    "public_transport": "platform",
    "shelter": "yes",
    "trolleybus": "yes"
  }
},
{
  "type": "node",
  "id": 2198107909,
  "lat": 53.7006296,
  "lon": 23.8588343,
  "tags": {
    "bus": "yes",
    "highway": "bus_stop",
    "name": "Падрыжацкая улица",
    "name:be": "Падрыжацкая вуліца",
    "name:ru": "Падрыжацкая улица",
    "public_transport": "platform"
  }
},
{
  "type": "node",
  "id": 2198107910,
  "lat": 53.6292384,
  "lon": 23.8570016,
  "tags": {
    "bus": "yes",
    "highway": "bus_stop",
    "name": "Южный",
    "name:be": "Паўднёвы",
    "name:ru": "Южный",
    "public_transport": "platform"
  }
},
{
  "type": "node",
  "id": 2199954875,
  "lat": 53.7190603,
  "lon": 23.8081468,
  "tags": {
    "bus": "yes",
    "highway": "bus_stop",
    "name": "КСМ",
    "public_transport": "platform",
    "trolleybus": "yes"
  }
},
{
  "type": "node",
  "id": 2199954877,
  "lat": 53.7333019,
  "lon": 23.7895672,
  "tags": {
    "bus": "yes",
    "highway": "bus_stop",
    "name": "Санаторий \"Неман\"",
    "public_transport": "platform"
  }
},
{
  "type": "node",
  "id": 2199954878,
  "lat": 53.6890093,
  "lon": 23.8365837,
  "tags": {
    "bus": "yes",
    "highway": "bus_stop",
    "int_name": "vulica Dziaržynskaha",
    "name": "улица Дзержинского",
    "name:be": "вуліца Дзяржынскага",
    "name:ru": "улица Дзержинского",
    "public_transport": "platform"
  }
},
{
  "type": "node",
  "id": 2199954879,
  "lat": 53.6891062,
  "lon": 23.8355098,
  "tags": {
    "bus": "yes",
    "highway": "bus_stop",
    "int_name": "vulica Dziaržynskaha",
    "name": "улица Дзержинского",
    "name:be": "вуліца Дзяржынскага",
    "name:ru": "улица Дзержинского",
    "public_transport": "platform"
  }
},
{
  "type": "node",
  "id": 2205158374,
  "lat": 53.6764749,
  "lon": 23.8929702,
  "tags": {
    "highway": "bus_stop",
    "name": "Заводоуправление",
    "public_transport": "platform"
  }
},
{
  "type": "node",
  "id": 2207492011,
  "lat": 53.6658766,
  "lon": 23.9172566,
  "tags": {
    "bench": "yes",
    "bus": "yes",
    "highway": "bus_stop",
    "name": "СУ–178",
    "public_transport": "platform",
    "shelter": "yes"
  }
},
{
  "type": "node",
  "id": 2207492012,
  "lat": 53.6671321,
  "lon": 23.9079580,
  "tags": {
    "bench": "yes",
    "bus": "yes",
    "highway": "bus_stop",
    "name": "Союзпроммонтаж",
    "name:ru": "Союзпроммонтаж",
    "public_transport": "platform",
    "shelter": "yes"
  }
},
{
  "type": "node",
  "id": 2211711899,
  "lat": 53.6566352,
  "lon": 23.7804694,
  "tags": {
    "highway": "bus_stop",
    "name": "СШ №37",
    "source": "survey"
  }
},
{
  "type": "node",
  "id": 2222979844,
  "lat": 53.6904942,
  "lon": 23.8291592,
  "tags": {
    "bus": "yes",
    "highway": "bus_stop",
    "name": "улица Островского",
    "name:be": "вуліца Астроўскага",
    "name:ru": "улица Островского",
    "public_transport": "platform"
  }
},
{
  "type": "node",
  "id": 2222979850,
  "lat": 53.6963093,
  "lon": 23.8334443,
  "tags": {
    "bus": "yes",
    "highway": "bus_stop",
    "int_name": "vulica Puškina",
    "name": "улица Пушкина",
    "name:be": "вуліца Пушкіна",
    "name:ru": "улица Пушкина",
    "public_transport": "platform",
    "shelter": "yes"
  }
},
{
  "type": "node",
  "id": 2264912745,
  "lat": 53.7216959,
  "lon": 23.8150305,
  "tags": {
    "bench": "yes",
    "bus": "yes",
    "highway": "bus_stop",
    "int_name": "Hrandzickaja vulica",
    "name": "Грандичская улица",
    "name:be": "Грандзіцкая вуліца",
    "name:ru": "Грандичская улица",
    "public_transport": "platform",
    "shelter": "yes"
  }
},
{
  "type": "node",
  "id": 2264912747,
  "lat": 53.7241451,
  "lon": 23.8255581,
  "tags": {
    "bus": "yes",
    "highway": "bus_stop",
    "name": "Мясокомбинат",
    "public_transport": "platform"
  }
},
{
  "type": "node",
  "id": 2264912748,
  "lat": 53.7221997,
  "lon": 23.8233402,
  "tags": {
    "bench": "yes",
    "bus": "yes",
    "highway": "bus_stop",
    "name": "Автокомбинат № 6",
    "name:be": "Аўтакамбінат № 6",
    "name:ru": "Автокомбинат № 6",
    "public_transport": "platform",
    "shelter": "yes"
  }
},
{
  "type": "node",
  "id": 2270953861,
  "lat": 53.6895077,
  "lon": 23.8257646,
  "tags": {
    "bench": "yes",
    "bus": "yes",
    "highway": "bus_stop",
    "name": "Ледовый дворец",
    "name:be": "Лядовы палац",
    "name:ru": "Ледовый дворец",
    "public_transport": "platform"
  }
},
{
  "type": "node",
  "id": 2270966736,
  "lat": 53.6357553,
  "lon": 23.8231929,
  "tags": {
    "highway": "bus_stop"
  }
},
{
  "type": "node",
  "id": 2270966737,
  "lat": 53.6353538,
  "lon": 23.8229756,
  "tags": {
    "highway": "bus_stop"
  }
},
{
  "type": "node",
  "id": 2270966738,
  "lat": 53.6396521,
  "lon": 23.8154554,
  "tags": {
    "bus": "yes",
    "highway": "bus_stop",
    "name": "Овощная фабрика",
    "name:ru": "Овощная фабрика",
    "public_transport": "platform"
  }
},
{
  "type": "node",
  "id": 2272091099,
  "lat": 53.6888004,
  "lon": 23.8550851,
  "tags": {
    "bus": "yes",
    "highway": "bus_stop",
    "name": "Озёрское шоссе",
    "name:be": "Азёрская шаша",
    "name:ru": "Озёрское шоссе",
    "public_transport": "platform"
  }
},
{
  "type": "node",
  "id": 2272308047,
  "lat": 53.6728254,
  "lon": 23.8921021,
  "tags": {
    "bus": "yes",
    "highway": "bus_stop",
    "name": "Азот",
    "public_transport": "platform",
    "shelter": "yes",
    "source": "survey"
  }
},
{
  "type": "node",
  "id": 2272308049,
  "lat": 53.6774814,
  "lon": 23.8923357,
  "tags": {
    "bus": "yes",
    "highway": "bus_stop",
    "name": "Заводоуправление",
    "public_transport": "platform"
  }
},
{
  "type": "node",
  "id": 2272920723,
  "lat": 53.7225786,
  "lon": 23.8219711,
  "tags": {
    "bench": "yes",
    "bus": "yes",
    "highway": "bus_stop",
    "name": "Автокомбинат № 6",
    "name:be": "Аўтакамбінат № 6",
    "name:ru": "Автокомбинат № 6",
    "public_transport": "platform",
    "shelter": "yes"
  }
},
{
  "type": "node",
  "id": 2272920729,
  "lat": 53.7197811,
  "lon": 23.8396099,
  "tags": {
    "bench": "yes",
    "bus": "yes",
    "covered": "no",
    "highway": "bus_stop",
    "name": "Лапенки",
    "public_transport": "platform",
    "shelter": "yes"
  }
},
{
  "type": "node",
  "id": 2272920736,
  "lat": 53.7217496,
  "lon": 23.8270443,
  "tags": {
    "bench": "yes",
    "bus": "yes",
    "highway": "bus_stop",
    "name": "Мясокомбинат",
    "public_transport": "platform",
    "shelter": "yes"
  }
},
{
  "type": "node",
  "id": 2276410568,
  "lat": 53.6348810,
  "lon": 23.8518212,
  "tags": {
    "bus": "yes",
    "highway": "bus_stop",
    "name": "Вишневец–7",
    "name:be": "Вішнявец–7",
    "name:ru": "Вишневец–7",
    "public_transport": "platform"
  }
},
{
  "type": "node",
  "id": 2277560662,
  "lat": 53.6700958,
  "lon": 23.7914571,
  "tags": {
    "bus": "yes",
    "highway": "bus_stop",
    "name": "1000 мелочей",
    "name:be": "1000 дробязей",
    "name:ru": "1000 мелочей",
    "name:uk": "1000 дрібниць",
    "public_transport": "platform",
    "source": "survey"
  }
},
{
  "type": "node",
  "id": 2280088987,
  "lat": 53.7110458,
  "lon": 23.8586275,
  "tags": {
    "bus": "yes",
    "highway": "bus_stop",
    "int_name": "Dzieviatoŭka–5",
    "name": "Девятовка–5",
    "name:be": "Дзевятоўка–5",
    "name:ru": "Девятовка–5",
    "public_transport": "platform"
  }
},
{
  "type": "node",
  "id": 2281093776,
  "lat": 53.6341108,
  "lon": 23.8513423,
  "tags": {
    "bus": "yes",
    "highway": "bus_stop",
    "int_name": "Višniavieckaja vulica",
    "name": "Вишневецкая улица",
    "name:be": "Вішнявецкая вуліца",
    "name:ru": "Вишневецкая улица",
    "public_transport": "platform"
  }
},
{
  "type": "node",
  "id": 2281093779,
  "lat": 53.6953571,
  "lon": 23.7883766,
  "tags": {
    "bus": "yes",
    "highway": "bus_stop",
    "name": "Поликлиника",
    "name:be": "Паліклініка",
    "name:ru": "Поликлиника",
    "public_transport": "platform"
  }
},
{
  "type": "node",
  "id": 2281093780,
  "lat": 53.6537806,
  "lon": 23.7914384,
  "tags": {
    "bus": "yes",
    "highway": "bus_stop",
    "name": "Производственный комбинат",
    "name:be": "Вытворчы камбінат",
    "name:ru": "Производственный комбинат",
    "public_transport": "platform"
  }
},
{
  "type": "node",
  "id": 2286941687,
  "lat": 53.6558524,
  "lon": 23.8009042,
  "tags": {
    "bus": "yes",
    "highway": "bus_stop",
    "name": "Гродно АТЭП",
    "public_transport": "platform",
    "trolleybus": "yes"
  }
},
{
  "type": "node",
  "id": 2290682893,
  "lat": 53.7142904,
  "lon": 23.8255569,
  "tags": {
    "highway": "bus_stop",
    "name": "завод \"БелТАПАЗ\"",
    "name:ru": "завод \"БелТАПАЗ\"",
    "public_transport": "platform",
    "trolleybus": "yes"
  }
},
{
  "type": "node",
  "id": 2296311715,
  "lat": 53.6663653,
  "lon": 23.7874498,
  "tags": {
    "bus": "yes",
    "highway": "bus_stop",
    "name": "улица Ольги Соломовой",
    "name:be": "вуліца Вольгі Саломавай",
    "name:ru": "улица Ольги Соломовой",
    "public_transport": "platform",
    "source": "survey"
  }
},
{
  "type": "node",
  "id": 2296368078,
  "lat": 53.6385809,
  "lon": 23.8137775,
  "tags": {
    "bus": "yes",
    "highway": "bus_stop",
    "name": "Овощная фабрика",
    "name:ru": "Овощная фабрика",
    "public_transport": "platform"
  }
},
{
  "type": "node",
  "id": 2303076604,
  "lat": 53.6248854,
  "lon": 23.8129970,
  "tags": {
    "bus": "yes",
    "highway": "bus_stop",
    "name": "улица 8 Марта",
    "name:be": "вуліца 8 Сакавіка",
    "name:ru": "улица 8 Марта",
    "public_transport": "platform"
  }
},
{
  "type": "node",
  "id": 2304012840,
  "lat": 53.6904967,
  "lon": 23.8711110,
  "tags": {
    "bus": "yes",
    "highway": "bus_stop",
    "name": "база \"Галантерея\"",
    "public_transport": "platform"
  }
},
{
  "type": "node",
  "id": 2304012841,
  "lat": 53.6906097,
  "lon": 23.8689652,
  "tags": {
    "bus": "yes",
    "highway": "bus_stop",
    "name": "база \"Галантерея\"",
    "public_transport": "platform"
  }
},
{
  "type": "node",
  "id": 2342024542,
  "lat": 53.7136291,
  "lon": 23.8670975,
  "tags": {
    "bench": "yes",
    "bus": "yes",
    "highway": "bus_stop",
    "name": "Магазин \"Родны кут\"",
    "name:be": "Магазін \"Родны кут\"",
    "name:ru": "Магазин \"Родны кут\"",
    "public_transport": "platform",
    "shelter": "yes"
  }
},
{
  "type": "node",
  "id": 2342024681,
  "lat": 53.7133391,
  "lon": 23.8719436,
  "tags": {
    "bus": "yes",
    "highway": "bus_stop",
    "int_name": "Dzieviatoŭka–7",
    "name": "Девятовка–7",
    "name:be": "Дзевятоўка–7",
    "name:ru": "Девятовка–7",
    "public_transport": "platform",
    "shelter": "no"
  }
},
{
  "type": "node",
  "id": 2343656190,
  "lat": 53.7153341,
  "lon": 23.8574555,
  "tags": {
    "bench": "yes",
    "bus": "yes",
    "highway": "bus_stop",
    "int_name": "Dzieviatoŭka–4",
    "name": "Девятовка–4",
    "name:be": "Дзевятоўка–4",
    "name:ru": "Девятовка–4",
    "old_name": "улица Белые Росы",
    "public_transport": "platform",
    "shelter": "yes"
  }
},
{
  "type": "node",
  "id": 2343901440,
  "lat": 53.6654665,
  "lon": 23.9190127,
  "tags": {
    "bench": "yes",
    "bus": "yes",
    "highway": "bus_stop",
    "name": "СУ–178",
    "public_transport": "platform"
  }
},
{
  "type": "node",
  "id": 2345811336,
  "lat": 53.7543792,
  "lon": 23.8246904,
  "tags": {
    "bench": "yes",
    "bus": "yes",
    "highway": "bus_stop",
    "name": "Зарица",
    "name:be": "Зарыца",
    "name:ru": "Зарица",
    "public_transport": "platform",
    "shelter": "yes",
    "source": "survey"
  }
},
{
  "type": "node",
  "id": 2347003865,
  "lat": 53.6689473,
  "lon": 23.8917123,
  "tags": {
    "bench": "yes",
    "bus": "yes",
    "highway": "bus_stop",
    "name": "Азот",
    "public_transport": "platform",
    "shelter": "no",
    "source": "survey"
  }
},
{
  "type": "node",
  "id": 2364941426,
  "lat": 53.6635265,
  "lon": 23.7841221,
  "tags": {
    "bench": "yes",
    "bus": "yes",
    "highway": "bus_stop",
    "name": "Магазин \"Фламинго\"",
    "name:be": "Магазін \"Фламінга\"",
    "name:ru": "Магазин \"Фламинго\"",
    "old_name": "Фолюш",
    "public_transport": "platform",
    "shelter": "yes"
  }
},
{
  "type": "node",
  "id": 2365478997,
  "lat": 53.6654786,
  "lon": 23.7870896,
  "tags": {
    "bench": "yes",
    "bus": "yes",
    "highway": "bus_stop",
    "name": "Мини-рынок",
    "shelter": "yes",
    "trolleybus": "yes"
  }
},
{
  "type": "node",
  "id": 2369278315,
  "lat": 53.6562578,
  "lon": 23.7831401,
  "tags": {
    "bench": "yes",
    "bus": "yes",
    "highway": "bus_stop",
    "name": "улица Данилова",
    "name:be": "вуліца Данілава",
    "name:ru": "улица Данилова",
    "public_transport": "platform",
    "shelter": "yes"
  }
},
{
  "type": "node",
  "id": 2453208156,
  "lat": 53.6434019,
  "lon": 23.8703820,
  "tags": {
    "bus": "yes",
    "highway": "bus_stop",
    "name": "Южная улица",
    "name:be": "Паўднёвая вуліца",
    "name:ru": "Южная улица",
    "public_transport": "platform"
  }
},
{
  "type": "node",
  "id": 2567084046,
  "lat": 53.6771025,
  "lon": 23.8890765,
  "tags": {
    "highway": "bus_stop",
    "name": "Механический завод"
  }
},
{
  "type": "node",
  "id": 2567086814,
  "lat": 53.6804102,
  "lon": 23.8957031,
  "tags": {
    "highway": "bus_stop"
  }
},
{
  "type": "node",
  "id": 2574266485,
  "lat": 53.6829179,
  "lon": 23.8451479,
  "tags": {
    "bench": "yes",
    "bus": "yes",
    "highway": "bus_stop",
    "int_name": "vulica Budzionaha",
    "name": "улица Будённого",
    "name:be": "вуліца Будзёнага",
    "name:ru": "улица Будённого",
    "public_transport": "platform",
    "shelter": "yes"
  }
},
{
  "type": "node",
  "id": 2630823976,
  "lat": 53.6449459,
  "lon": 23.8585625,
  "tags": {
    "bench": "yes",
    "bus": "yes",
    "highway": "bus_stop",
    "name": "улица Кабяка – 2",
    "name:be": "вуліца Кабяка – 2",
    "name:ru": "улица Кабяка – 2",
    "public_transport": "platform",
    "shelter": "yes"
  }
},
{
  "type": "node",
  "id": 2631283640,
  "lat": 53.6469405,
  "lon": 23.8652956,
  "tags": {
    "bench": "yes",
    "bus": "yes",
    "highway": "bus_stop",
    "name": "улица Кабяка – 2",
    "name:be": "вуліца Кабяка – 2",
    "name:ru": "улица Кабяка – 2",
    "public_transport": "platform",
    "shelter": "yes"
  }
},
{
  "type": "node",
  "id": 2660413107,
  "lat": 53.7133669,
  "lon": 23.8682051,
  "tags": {
    "bench": "no",
    "bus": "yes",
    "covered": "no",
    "highway": "bus_stop",
    "int_name": "Dzieviatoŭka–7",
    "name": "Девятовка–7",
    "name:be": "Дзевятоўка–7",
    "name:ru": "Девятовка–7",
    "public_transport": "platform",
    "shelter": "no"
  }
},
{
  "type": "node",
  "id": 2690057477,
  "lat": 53.6850408,
  "lon": 23.8419920,
  "tags": {
    "bus": "yes",
    "highway": "bus_stop",
    "name": "Собор",
    "name:be": "Сабор",
    "name:ru": "Собор",
    "public_transport": "platform"
  }
},
{
  "type": "node",
  "id": 2712199749,
  "lat": 53.6372841,
  "lon": 23.8571582,
  "tags": {
    "bus": "yes",
    "highway": "bus_stop",
    "name": "Вишневец–5",
    "name:be": "Вішнявец–5",
    "name:ru": "Вишневец–5",
    "public_transport": "platform"
  }
},
{
  "type": "node",
  "id": 2897668489,
  "lat": 53.6687527,
  "lon": 23.8451490,
  "tags": {
    "highway": "bus_stop",
    "name": "4-й Подольный переулок"
  }
},
{
  "type": "node",
  "id": 2904637408,
  "lat": 53.6723387,
  "lon": 23.8419701,
  "tags": {
    "highway": "bus_stop",
    "name": "Центральный рынок"
  }
},
{
  "type": "node",
  "id": 2904639194,
  "lat": 53.6722307,
  "lon": 23.8491316,
  "tags": {
    "highway": "bus_stop",
    "name": "Аптека"
  }
},
{
  "type": "node",
  "id": 3018684260,
  "lat": 53.6347864,
  "lon": 23.9022826,
  "tags": {
    "bus": "yes",
    "highway": "bus_stop",
    "int_name": "Maladaja vulica",
    "name": "Молодая улица",
    "name:be": "Маладая вуліца",
    "name:ru": "Молодая улица"
  }
},
{
  "type": "node",
  "id": 3018684261,
  "lat": 53.6318478,
  "lon": 23.8932772,
  "tags": {
    "bus": "yes",
    "highway": "bus_stop",
    "name": "Погораны",
    "name:be": "Пагараны",
    "name:ru": "Погораны",
    "public_transport": "platform"
  }
},
{
  "type": "node",
  "id": 3124783484,
  "lat": 53.6461151,
  "lon": 23.8171379,
  "tags": {
    "bench": "yes",
    "bus": "yes",
    "highway": "bus_stop",
    "int_name": "vulica Maslakova",
    "name": "улица Маслакова",
    "name:be": "вуліца Маслакова",
    "name:ru": "улица Маслакова",
    "public_transport": "platform",
    "shelter": "yes"
  }
},
{
  "type": "node",
  "id": 3298249968,
  "lat": 53.6796362,
  "lon": 23.8347978,
  "tags": {
    "bus": "yes",
    "highway": "bus_stop",
    "name": "Вечерняя школа",
    "name:be": "Вячэрняя школа",
    "name:ru": "Вечерняя школа",
    "public_transport": "platform",
    "shelter": "yes",
    "trolleybus": "yes"
  }
},
{
  "type": "node",
  "id": 3298249969,
  "lat": 53.6798022,
  "lon": 23.8352090,
  "tags": {
    "bus": "yes",
    "highway": "bus_stop",
    "name": "Вечерняя школа",
    "name:be": "Вячэрняя школа",
    "name:ru": "Вечерняя школа",
    "public_transport": "platform",
    "shelter": "no"
  }
},
{
  "type": "node",
  "id": 3401471833,
  "lat": 53.6196045,
  "lon": 23.8340726,
  "tags": {
    "highway": "bus_stop"
  }
},
{
  "type": "node",
  "id": 3505724729,
  "lat": 53.6222463,
  "lon": 23.8176313,
  "tags": {
    "bench": "yes",
    "bus": "yes",
    "covered": "yes",
    "highway": "bus_stop",
    "name": "улица Великая Ольшанка",
    "name:be": "вуліца Вялікая Альшанка",
    "name:ru": "улица Великая Ольшанка",
    "public_transport": "platform",
    "shelter": "yes"
  }
},
{
  "type": "node",
  "id": 3596106953,
  "lat": 53.7139517,
  "lon": 23.8741672,
  "tags": {
    "highway": "bus_stop",
    "int_name": "Dzieviatoŭka–7",
    "name": "Девятовка–7 [без посадки и высадки]",
    "name:be": "Дзевятоўка–7",
    "name:ru": "Девятовка–7 [без посадки и высадки]",
    "public_transport": "platform",
    "shelter": "no"
  }
},
{
  "type": "node",
  "id": 3643501538,
  "lat": 53.7104732,
  "lon": 23.8598595,
  "tags": {
    "bench": "yes",
    "bus": "yes",
    "highway": "bus_stop",
    "int_name": "Dzieviatoŭka–5",
    "name": "Девятовка–5",
    "name:be": "Дзевятоўка–5",
    "name:ru": "Девятовка–5",
    "public_transport": "platform",
    "shelter": "yes"
  }
},
{
  "type": "node",
  "id": 3649492665,
  "lat": 53.6202109,
  "lon": 23.7982195,
  "tags": {
    "bench": "yes",
    "bus": "yes",
    "highway": "bus_stop",
    "name": "Малая Ольшанка",
    "public_transport": "platform",
    "shelter": "yes"
  }
},
{
  "type": "node",
  "id": 3649492671,
  "lat": 53.6208034,
  "lon": 23.8102635,
  "tags": {
    "bench": "yes",
    "bus": "yes",
    "highway": "bus_stop",
    "name": "ул. Н. Орды",
    "public_transport": "platform",
    "shelter": "yes"
  }
},
{
  "type": "node",
  "id": 3649492703,
  "lat": 53.6216211,
  "lon": 23.8225144,
  "tags": {
    "bus": "yes",
    "highway": "bus_stop",
    "name": "улица Отечественная",
    "name:ru": "улица Отечественная",
    "public_transport": "platform"
  }
},
{
  "type": "node",
  "id": 3649492938,
  "lat": 53.6226660,
  "lon": 23.7994297,
  "tags": {
    "bench": "yes",
    "bus": "yes",
    "highway": "bus_stop",
    "name": "ул. Короткевича",
    "public_transport": "platform",
    "shelter": "yes"
  }
},
{
  "type": "node",
  "id": 3649492986,
  "lat": 53.6237615,
  "lon": 23.8009828,
  "tags": {
    "bench": "yes",
    "bus": "yes",
    "highway": "bus_stop",
    "name": "ул. Короткевича",
    "public_transport": "platform",
    "shelter": "yes"
  }
},
{
  "type": "node",
  "id": 3649493190,
  "lat": 53.6264591,
  "lon": 23.8023145,
  "tags": {
    "bench": "yes",
    "bus": "yes",
    "highway": "bus_stop",
    "name": "СШ № 39",
    "public_transport": "platform",
    "shelter": "yes"
  }
},
{
  "type": "node",
  "id": 3649493203,
  "lat": 53.6230405,
  "lon": 23.8168913,
  "tags": {
    "bench": "yes",
    "bus": "yes",
    "covered": "yes",
    "highway": "bus_stop",
    "name": "улица Великая Ольшанка",
    "name:be": "вуліца Вялікая Альшанка",
    "name:ru": "улица Великая Ольшанка",
    "public_transport": "platform",
    "shelter": "yes"
  }
},
{
  "type": "node",
  "id": 3662389325,
  "lat": 53.6665546,
  "lon": 23.9107326,
  "tags": {
    "bus": "yes",
    "highway": "bus_stop",
    "name": "Союзпроммонтаж",
    "name:ru": "Союзпроммонтаж",
    "public_transport": "platform"
  }
},
{
  "type": "node",
  "id": 3759090825,
  "lat": 53.6182010,
  "lon": 23.8022658,
  "tags": {
    "bench": "yes",
    "bus": "yes",
    "highway": "bus_stop",
    "name": "Ольшанка",
    "public_transport": "platform",
    "shelter": "yes"
  }
},
{
  "type": "node",
  "id": 3759090826,
  "lat": 53.6164986,
  "lon": 23.8071849,
  "tags": {
    "bench": "yes",
    "bus": "yes",
    "highway": "bus_stop",
    "name": "ул. Богушевича",
    "public_transport": "platform",
    "shelter": "yes"
  }
},
{
  "type": "node",
  "id": 3759090827,
  "lat": 53.6173131,
  "lon": 23.8033226,
  "tags": {
    "bench": "yes",
    "bus": "yes",
    "highway": "bus_stop",
    "name": "ул. Богушевича",
    "public_transport": "platform",
    "shelter": "yes"
  }
},
{
  "type": "node",
  "id": 3759090828,
  "lat": 53.6190506,
  "lon": 23.7982907,
  "tags": {
    "bench": "yes",
    "bus": "yes",
    "highway": "bus_stop",
    "name": "Ольшанка",
    "public_transport": "platform",
    "shelter": "yes"
  }
},
{
  "type": "node",
  "id": 3759090829,
  "lat": 53.6165368,
  "lon": 23.8086655,
  "tags": {
    "bench": "yes",
    "bus": "yes",
    "highway": "bus_stop",
    "name": "ул. Минденская",
    "public_transport": "platform",
    "shelter": "yes"
  }
},
{
  "type": "node",
  "id": 3759108016,
  "lat": 53.6198747,
  "lon": 23.8091644,
  "tags": {
    "bench": "yes",
    "bus": "yes",
    "highway": "bus_stop",
    "name": "ул. Огинского",
    "public_transport": "platform",
    "shelter": "yes"
  }
},
{
  "type": "node",
  "id": 3759108017,
  "lat": 53.6240487,
  "lon": 23.8120344,
  "tags": {
    "bench": "yes",
    "bus": "yes",
    "highway": "bus_stop",
    "name": "ул. Н. Орды",
    "public_transport": "platform",
    "shelter": "yes"
  }
},
{
  "type": "node",
  "id": 3868543057,
  "lat": 53.6324752,
  "lon": 23.8975598,
  "tags": {
    "highway": "bus_stop"
  }
},
{
  "type": "node",
  "id": 3868543257,
  "lat": 53.6343010,
  "lon": 23.8997699,
  "tags": {
    "highway": "bus_stop"
  }
}

  ]
}
